{"type": "FeatureCollection", "features": [{"type": "Feature", "properties": {"country_iso": "ARG", "country_name": "Argentina"}, "geometry": {"type": "MultiPolygon", "coordinates": [[[[-67.678, -49.445], [-67.749, -49.814], [-68.04, -50.068], [-68.353, -50.118], [-68.637, -49.778], [-68.571, -49.937], [-68.933, -50.0], [-68.581, -49.964], [-68.355, -50.151], [-68.88, -50.336], [-69.079, -50.565], [-69.132, -50.9], [-69.465, -51.113], [-69.166, -50.981], [-68.959, -51.572], [-69.618, -51.627], [-68.961, -51.624], [-68.353, -52.323], [-68.433, -52.398], [-69.995, -52.001], [-72.01, -51.978], [-71.951, -51.872], [-72.443, -51.584], [-72.259, -51.254], [-72.409, -51.107], [-72.266, -51.035], [-72.286, -50.66], [-72.73, -50.615], [-73.268, -50.824], [-73.173, -50.677], [-73.565, -50.271], [-73.439, -49.758], [-73.55, -49.538], [-73.411, -49.319], [-73.495, -49.242], [-73.046, -49.274], [-73.145, -49.19], [-72.946, -48.946], [-72.533, -48.799], [-72.586, -48.487], [-72.442, -48.514], [-72.381, -48.35], [-72.226, -48.321], [-72.527, -47.938], [-72.523, -47.74], [-72.309, -47.591], [-72.341, -47.456], [-71.996, -47.295], [-72.019, -47.198], [-71.865, -47.231], [-71.955, -46.814], [-71.643, -46.685], [-71.727, -46.272], [-71.915, -46.14], [-71.614, -45.975], [-71.769, -45.844], [-71.764, -45.56], [-71.469, -45.494], [-71.529, -45.393], [-71.32, -45.292], [-71.559, -44.978], [-72.034, -44.905], [-72.067, -44.76], [-71.292, -44.814], [-71.097, -44.587], [-71.242, -44.418], [-71.815, -44.416], [-71.849, -44.114], [-71.649, -43.946], [-71.754, -43.788], [-71.581, -43.653], [-71.934, -43.449], [-71.729, -43.2], [-72.143, -42.9], [-72.179, -42.689], [-72.013, -42.495], [-72.188, -42.161], [-71.726, -42.11], [-71.911, -41.357], [-71.818, -41.062], [-71.966, -40.746], [-71.825, -40.422], [-71.657, -40.363], [-71.83, -40.216], [-71.593, -39.911], [-71.699, -39.587], [-71.461, -39.583], [-71.434, -38.929], [-70.927, -38.763], [-70.826, -38.592], [-71.183, -37.858], [-71.118, -37.469], [-71.221, -37.275], [-71.092, -37.115], [-71.222, -36.978], [-71.088, -36.938], [-71.18, -36.841], [-71.009, -36.691], [-71.037, -36.476], [-70.713, -36.428], [-70.579, -36.14], [-70.421, -36.156], [-70.422, -35.877], [-70.312, -35.813], [-70.432, -35.318], [-70.584, -35.267], [-70.375, -35.17], [-70.306, -34.747], [-70.031, -34.288], [-69.797, -34.21], [-69.905, -33.771], [-69.769, -33.342], [-69.917, -33.244], [-70.003, -33.323], [-70.064, -33.205], [-69.99, -32.898], [-70.388, -32.045], [-70.209, -31.96], [-70.46, -31.844], [-70.547, -31.315], [-70.497, -31.122], [-70.269, -31.043], [-70.155, -30.347], [-69.955, -30.386], [-69.819, -30.189], [-69.965, -30.085], [-69.879, -29.726], [-70.021, -29.33], [-69.788, -29.133], [-69.649, -28.396], [-69.123, -27.901], [-68.787, -27.104], [-68.575, -27.178], [-68.294, -27.038], [-68.262, -26.918], [-68.588, -26.492], [-68.558, -26.287], [-68.381, -26.178], [-68.59, -25.414], [-68.507, -25.168], [-68.344, -25.111], [-68.562, -24.763], [-68.261, -24.403], [-67.323, -24.034], [-66.991, -23.0], [-67.18, -22.814], [-67.027, -22.541], [-66.782, -22.438], [-66.739, -22.238], [-66.289, -22.087], [-66.222, -21.781], [-65.748, -22.109], [-64.993, -22.082], [-64.618, -22.205], [-64.316, -22.883], [-63.931, -21.999], [-62.811, -21.999], [-62.636, -22.306], [-62.251, -22.516], [-61.997, -23.011], [-61.124, -23.587], [-60.985, -23.809], [-60.295, -24.041], [-60.039, -24.012], [-59.128, -24.618], [-57.754, -25.176], [-57.573, -25.556], [-57.827, -25.754], [-57.855, -26.008], [-58.159, -26.181], [-58.191, -26.646], [-58.652, -27.131], [-58.616, -27.319], [-57.891, -27.268], [-56.849, -27.606], [-56.763, -27.545], [-57.032, -27.481], [-56.908, -27.423], [-56.754, -27.539], [-56.604, -27.431], [-56.375, -27.602], [-56.087, -27.309], [-55.737, -27.445], [-55.561, -27.101], [-55.138, -26.951], [-54.789, -26.634], [-54.618, -26.214], [-54.593, -25.593], [-54.429, -25.694], [-54.104, -25.494], [-54.102, -25.617], [-53.843, -25.687], [-53.837, -25.97], [-53.641, -26.214], [-53.76, -26.641], [-53.671, -26.942], [-54.279, -27.446], [-54.813, -27.533], [-54.936, -27.772], [-55.084, -27.786], [-55.033, -27.857], [-55.775, -28.244], [-55.696, -28.423], [-55.878, -28.361], [-56.42, -29.079], [-56.592, -29.124], [-56.814, -29.482], [-57.289, -29.825], [-57.89, -30.511], [-57.8, -30.857], [-58.082, -31.458], [-57.981, -31.581], [-58.038, -31.76], [-58.207, -31.872], [-58.084, -33.001], [-58.404, -33.18], [-58.495, -33.586], [-58.355, -34.19], [-58.514, -34.271], [-58.515, -34.447], [-57.223, -35.273], [-57.128, -35.446], [-57.365, -35.745], [-57.382, -35.967], [-57.115, -36.28], [-56.74, -36.314], [-56.667, -36.883], [-57.492, -37.828], [-57.545, -38.101], [-58.497, -38.537], [-61.143, -39.0], [-61.812, -38.993], [-62.328, -38.803], [-62.414, -38.817], [-62.326, -38.838], [-62.317, -39.266], [-62.009, -39.367], [-62.288, -39.299], [-62.045, -39.448], [-62.119, -39.846], [-62.296, -39.827], [-62.339, -40.187], [-62.488, -40.301], [-62.17, -40.597], [-62.385, -40.909], [-63.082, -41.15], [-63.777, -41.16], [-64.9, -40.817], [-64.74, -40.81], [-64.808, -40.725], [-65.113, -40.832], [-65.154, -41.163], [-64.988, -41.519], [-65.032, -42.074], [-64.464, -42.24], [-64.619, -42.415], [-64.434, -42.44], [-64.043, -42.351], [-64.379, -42.238], [-63.759, -42.076], [-63.584, -42.612], [-63.677, -42.792], [-64.11, -42.879], [-64.344, -42.532], [-64.629, -42.496], [-64.98, -42.649], [-65.015, -42.782], [-64.308, -42.979], [-64.976, -43.255], [-65.333, -43.657], [-65.188, -44.035], [-65.312, -44.204], [-65.217, -44.367], [-65.729, -44.812], [-65.52, -44.93], [-65.69, -45.062], [-66.195, -44.982], [-66.6, -45.139], [-66.519, -45.223], [-66.964, -45.273], [-67.593, -45.988], [-67.593, -46.294], [-67.38, -46.605], [-66.731, -47.026], [-65.867, -47.092], [-65.718, -47.332], [-65.839, -47.747], [-66.282, -47.869], [-65.874, -47.765], [-65.761, -47.916], [-65.941, -47.954], [-65.894, -48.101], [-67.13, -48.685], [-67.838, -49.387], [-67.613, -49.25], [-67.678, -49.445]]], [[[-61.987, -39.096], [-61.87, -39.244], [-62.057, -39.158], [-61.987, -39.096]]], [[[-64.311, -54.736], [-63.796, -54.727], [-64.606, -54.911], [-64.757, -54.836], [-64.311, -54.736]]], [[[-66.249, -54.528], [-65.117, -54.658], [-65.382, -54.941], [-65.982, -54.903], [-66.45, -55.058], [-68.249, -54.795], [-68.609, -54.894], [-68.606, -52.658], [-68.202, -53.142], [-68.36, -53.018], [-68.548, -53.248], [-68.137, -53.331], [-67.682, -53.797], [-67.775, -53.836], [-67.546, -53.84], [-66.249, -54.528]]]]}}, {"type": "Feature", "properties": {"country_iso": "BOL", "country_name": "Bolivia (Estado Plurinacional de)"}, "geometry": {"type": "MultiPolygon", "coordinates": [[[[-68.751, -19.133], [-68.95, -18.937], [-69.079, -18.047], [-69.289, -17.96], [-69.469, -17.374], [-69.645, -17.281], [-69.01, -16.667], [-69.029, -16.553], [-68.845, -16.586], [-68.947, -16.437], [-68.567, -16.268], [-68.849, -16.216], [-68.91, -16.072], [-68.722, -15.944], [-68.896, -15.939], [-69.305, -15.606], [-69.12, -15.259], [-69.364, -14.93], [-68.985, -14.237], [-68.828, -14.23], [-69.067, -13.673], [-68.896, -13.464], [-68.871, -12.87], [-68.652, -12.498], [-69.575, -10.945], [-68.545, -11.109], [-68.237, -10.961], [-68.056, -10.67], [-67.709, -10.71], [-67.407, -10.376], [-67.016, -10.258], [-66.625, -9.897], [-65.775, -9.738], [-65.56, -9.846], [-65.438, -9.67], [-65.287, -9.857], [-65.431, -10.482], [-65.251, -10.984], [-65.36, -11.261], [-65.212, -11.534], [-65.261, -11.708], [-65.083, -11.713], [-65.036, -11.996], [-64.835, -12.013], [-64.754, -12.157], [-64.709, -12.086], [-64.293, -12.502], [-63.785, -12.429], [-63.371, -12.66], [-63.157, -12.614], [-62.78, -13.008], [-62.169, -13.113], [-61.856, -13.538], [-61.041, -13.476], [-60.461, -13.799], [-60.482, -14.182], [-60.272, -14.623], [-60.244, -15.095], [-60.575, -15.096], [-60.238, -15.474], [-60.173, -16.263], [-58.322, -16.266], [-58.479, -16.823], [-58.397, -17.186], [-58.12, -17.45], [-57.738, -17.561], [-57.723, -17.83], [-57.454, -18.231], [-57.56, -18.242], [-57.767, -18.901], [-57.691, -19.011], [-58.131, -19.758], [-57.903, -20.043], [-58.17, -20.166], [-58.165, -19.827], [-59.114, -19.344], [-59.977, -19.295], [-61.735, -19.634], [-62.267, -20.563], [-62.261, -21.059], [-62.644, -22.247], [-62.805, -22.002], [-63.931, -21.999], [-64.316, -22.883], [-64.617, -22.205], [-64.994, -22.084], [-65.748, -22.109], [-66.221, -21.781], [-66.289, -22.087], [-66.739, -22.238], [-66.782, -22.438], [-67.027, -22.541], [-67.181, -22.814], [-67.588, -22.907], [-67.883, -22.834], [-67.939, -22.109], [-68.072, -21.98], [-68.178, -21.304], [-68.569, -20.895], [-68.449, -20.624], [-68.739, -20.457], [-68.659, -20.335], [-68.763, -20.079], [-68.566, -20.05], [-68.522, -19.924], [-68.684, -19.719], [-68.405, -19.416], [-68.751, -19.133]]], [[[-69.131, -16.056], [-68.837, -16.273], [-69.102, -16.226], [-69.131, -16.056]]]]}}, {"type": "Feature", "properties": {"country_iso": "BRA", "country_name": "Brazil"}, "geometry": {"type": "MultiPolygon", "coordinates": [[[[-54.427, -23.914], [-54.669, -23.812], [-55.063, -23.993], [-55.414, -23.965], [-55.639, -23.026], [-55.614, -22.655], [-55.852, -22.281], [-56.21, -22.277], [-56.395, -22.076], [-56.843, -22.301], [-57.994, -22.089], [-57.819, -20.945], [-57.928, -20.9], [-57.87, -20.725], [-57.988, -20.7], [-58.168, -20.172], [-57.858, -19.971], [-58.132, -19.758], [-57.694, -19.01], [-57.767, -18.899], [-57.558, -18.24], [-57.455, -18.231], [-57.752, -17.564], [-58.117, -17.451], [-58.397, -17.182], [-58.471, -16.705], [-58.323, -16.266], [-60.172, -16.266], [-60.239, -15.474], [-60.565, -15.109], [-60.244, -15.097], [-60.273, -14.621], [-60.492, -14.189], [-60.382, -13.992], [-60.468, -13.795], [-61.015, -13.487], [-61.841, -13.549], [-62.17, -13.114], [-62.78, -13.009], [-63.159, -12.614], [-63.295, -12.682], [-63.787, -12.428], [-64.291, -12.501], [-64.7, -12.093], [-65.03, -11.997], [-65.086, -11.712], [-65.258, -11.711], [-65.212, -11.532], [-65.361, -11.25], [-65.25, -10.988], [-65.43, -10.482], [-65.286, -9.846], [-65.443, -9.669], [-65.559, -9.845], [-65.771, -9.734], [-66.62, -9.895], [-67.016, -10.257], [-67.409, -10.375], [-67.708, -10.708], [-68.031, -10.656], [-68.237, -10.956], [-68.543, -11.11], [-69.423, -10.924], [-69.933, -10.921], [-70.31, -11.07], [-70.529, -10.931], [-70.621, -11.0], [-70.623, -9.821], [-70.497, -9.425], [-71.211, -9.966], [-72.18, -10.0], [-72.151, -9.799], [-72.357, -9.494], [-73.212, -9.412], [-72.937, -8.988], [-73.536, -8.346], [-73.772, -7.902], [-73.684, -7.776], [-73.988, -7.555], [-73.963, -7.347], [-73.7, -7.304], [-73.802, -7.112], [-73.707, -6.84], [-73.138, -6.498], [-73.237, -6.032], [-72.962, -5.655], [-72.873, -5.156], [-71.883, -4.516], [-70.943, -4.386], [-70.654, -4.127], [-70.326, -4.146], [-70.198, -4.366], [-69.964, -4.301], [-69.396, -1.133], [-69.626, -0.75], [-69.615, -0.506], [-70.057, -0.187], [-70.044, 0.559], [-69.481, 0.736], [-69.359, 0.612], [-69.115, 0.65], [-69.265, 1.064], [-69.844, 1.086], [-69.843, 1.721], [-68.157, 1.732], [-68.267, 1.827], [-68.209, 1.962], [-67.941, 1.831], [-67.389, 2.244], [-67.287, 1.889], [-67.097, 1.733], [-67.088, 1.167], [-66.857, 1.23], [-66.318, 0.755], [-65.586, 1.009], [-65.541, 0.649], [-65.329, 0.932], [-65.182, 0.922], [-65.103, 1.157], [-64.803, 1.31], [-64.729, 1.235], [-64.397, 1.527], [-64.338, 1.364], [-64.095, 1.617], [-63.995, 1.98], [-63.398, 2.147], [-63.417, 2.453], [-64.06, 2.5], [-63.984, 2.729], [-64.219, 3.091], [-64.117, 3.279], [-64.196, 3.579], [-64.674, 4.005], [-64.794, 4.287], [-64.56, 4.102], [-64.168, 4.128], [-63.965, 3.868], [-63.683, 3.908], [-63.684, 4.018], [-63.498, 3.84], [-63.428, 3.977], [-63.208, 3.953], [-63.226, 3.835], [-62.961, 3.608], [-62.836, 3.738], [-62.744, 3.674], [-62.753, 4.032], [-62.559, 4.016], [-62.463, 4.178], [-61.931, 4.103], [-61.558, 4.253], [-61.322, 4.535], [-60.998, 4.517], [-60.59, 4.931], [-60.723, 5.22], [-60.136, 5.249], [-59.971, 5.063], [-60.161, 4.519], [-59.67, 4.376], [-59.731, 4.182], [-59.517, 3.946], [-59.872, 3.563], [-59.805, 3.357], [-59.986, 2.91], [-59.905, 2.377], [-59.723, 2.276], [-59.752, 1.859], [-59.253, 1.388], [-58.918, 1.316], [-58.821, 1.171], [-58.695, 1.297], [-58.496, 1.268], [-58.509, 1.463], [-58.327, 1.595], [-58.004, 1.503], [-57.99, 1.659], [-57.538, 1.701], [-57.304, 1.998], [-57.087, 2.026], [-56.791, 1.852], [-56.451, 1.956], [-55.956, 1.845], [-55.903, 2.041], [-56.139, 2.266], [-55.971, 2.529], [-55.385, 2.419], [-55.004, 2.591], [-54.437, 2.21], [-53.974, 2.233], [-53.767, 2.379], [-53.541, 2.257], [-53.338, 2.354], [-53.279, 2.186], [-52.904, 2.188], [-52.553, 2.521], [-52.331, 3.171], [-51.656, 4.054], [-51.638, 4.509], [-51.332, 4.305], [-51.083, 3.895], [-51.044, 3.134], [-50.681, 2.133], [-50.445, 1.815], [-49.921, 1.688], [-49.888, 1.023], [-50.231, 0.73], [-50.029, 0.578], [-50.175, 0.348], [-49.507, 0.375], [-49.7, 0.151], [-49.375, 0.044], [-49.394, -0.191], [-48.428, -0.228], [-48.455, -0.887], [-48.294, -0.92], [-47.914, -0.564], [-47.838, -0.682], [-47.704, -0.535], [-47.631, -0.707], [-47.588, -0.577], [-47.481, -0.739], [-47.473, -0.594], [-47.32, -0.591], [-47.166, -0.765], [-46.96, -0.71], [-46.94, -0.869], [-46.86, -0.741], [-46.801, -0.872], [-46.642, -0.794], [-46.637, -0.969], [-46.423, -0.867], [-46.466, -1.026], [-46.203, -0.885], [-46.24, -1.1], [-46.08, -1.023], [-46.104, -1.202], [-45.977, -1.049], [-45.948, -1.203], [-45.861, -1.05], [-45.911, -1.166], [-45.72, -1.111], [-45.691, -1.274], [-45.628, -1.125], [-45.637, -1.281], [-45.513, -1.378], [-45.409, -1.306], [-45.484, -1.477], [-45.306, -1.335], [-45.338, -1.594], [-45.096, -1.456], [-44.954, -1.56], [-44.846, -1.416], [-44.911, -1.599], [-44.657, -1.588], [-44.798, -1.703], [-44.601, -1.74], [-44.483, -1.986], [-44.678, -2.281], [-44.464, -2.146], [-44.359, -2.334], [-44.626, -2.702], [-44.679, -2.979], [-44.591, -3.042], [-44.425, -2.944], [-44.304, -2.488], [-44.031, -2.407], [-44.266, -2.759], [-44.089, -2.751], [-43.627, -2.251], [-43.766, -2.495], [-43.461, -2.487], [-43.479, -2.367], [-43.31, -2.339], [-42.339, -2.749], [-41.812, -2.728], [-41.587, -2.906], [-39.987, -2.842], [-38.464, -3.709], [-38.043, -4.22], [-37.592, -4.625], [-37.329, -4.698], [-37.155, -4.947], [-36.959, -4.919], [-36.694, -5.087], [-35.617, -5.115], [-35.26, -5.483], [-34.794, -7.154], [-34.82, -7.927], [-35.008, -8.563], [-35.304, -9.19], [-36.388, -10.499], [-37.005, -10.917], [-38.046, -12.634], [-38.342, -12.95], [-38.954, -13.258], [-38.892, -13.652], [-38.997, -13.747], [-38.928, -13.939], [-39.065, -14.71], [-38.853, -15.849], [-39.213, -17.166], [-39.136, -17.689], [-39.637, -18.237], [-39.812, -19.65], [-40.153, -19.949], [-40.425, -20.636], [-40.76, -20.866], [-41.068, -21.497], [-40.987, -22.005], [-41.964, -22.537], [-41.988, -22.71], [-41.865, -22.755], [-42.014, -22.996], [-43.051, -22.981], [-43.084, -22.678], [-43.278, -22.781], [-43.161, -22.965], [-43.553, -23.075], [-43.842, -22.902], [-44.195, -23.053], [-44.412, -22.942], [-44.69, -23.083], [-44.713, -23.234], [-44.514, -23.289], [-44.586, -23.36], [-45.06, -23.419], [-45.413, -23.629], [-45.43, -23.831], [-46.101, -23.828], [-46.182, -23.99], [-46.381, -23.971], [-46.844, -24.218], [-47.822, -24.956], [-48.602, -25.998], [-48.494, -26.219], [-48.688, -26.677], [-48.585, -26.786], [-48.608, -27.116], [-48.468, -27.145], [-48.615, -27.274], [-48.359, -27.44], [-48.601, -27.859], [-48.762, -28.534], [-49.703, -29.307], [-50.779, -31.124], [-52.225, -32.251], [-52.65, -33.142], [-53.392, -33.751], [-53.53, -33.688], [-53.518, -33.153], [-53.076, -32.741], [-53.584, -32.451], [-53.727, -32.095], [-54.101, -31.927], [-54.587, -31.459], [-55.239, -31.261], [-55.578, -30.834], [-56.01, -31.081], [-56.024, -30.786], [-56.807, -30.104], [-57.068, -30.085], [-57.22, -30.289], [-57.65, -30.189], [-56.822, -29.49], [-55.879, -28.362], [-55.695, -28.423], [-55.771, -28.241], [-55.031, -27.855], [-55.08, -27.779], [-54.938, -27.771], [-54.81, -27.53], [-54.277, -27.445], [-54.187, -27.265], [-53.8, -27.147], [-53.67, -26.943], [-53.76, -26.641], [-53.641, -26.214], [-53.835, -25.973], [-53.862, -25.659], [-54.102, -25.618], [-54.104, -25.494], [-54.432, -25.697], [-54.594, -25.589], [-54.258, -24.366], [-54.427, -23.914]]], [[[-50.396, 2.1], [-50.317, 1.95], [-50.429, 1.867], [-50.52, 2.018], [-50.396, 2.1]]], [[[-45.289, -23.856], [-45.245, -23.965], [-45.46, -23.915], [-45.333, -23.723], [-45.289, -23.856]]], [[[-44.477, -2.782], [-44.583, -3.03], [-44.587, -2.815], [-44.477, -2.782]]], [[[-44.872, -1.302], [-45.021, -1.384], [-44.987, -1.266], [-44.872, -1.302]]], [[[-44.202, -23.097], [-44.096, -23.174], [-44.377, -23.178], [-44.202, -23.097]]], [[[-43.887, -23.075], [-44.011, -23.079], [-43.792, -23.062], [-43.887, -23.075]]]]}}, {"type": "Feature", "properties": {"country_iso": "CHL", "country_name": "Chile"}, "geometry": {"type": "MultiPolygon", "coordinates": [[[[-66.527, -55.177], [-66.419, -55.22], [-66.652, -55.278], [-66.527, -55.177]]], [[[-66.896, -55.219], [-66.856, -55.342], [-67.04, -55.333], [-66.896, -55.219]]], [[[-75.258, -49.615], [-75.143, -49.503], [-75.388, -49.485], [-75.305, -49.383], [-75.402, -49.442], [-75.453, -49.275], [-75.324, -49.253], [-75.415, -49.326], [-75.319, -49.277], [-75.247, -49.342], [-75.305, -49.248], [-75.024, -49.347], [-75.172, -49.253], [-75.003, -49.332], [-75.051, -49.2], [-75.179, -49.141], [-75.095, -49.084], [-75.206, -49.129], [-75.036, -49.004], [-74.824, -49.076], [-74.868, -49.286], [-75.014, -49.218], [-74.857, -49.372], [-74.724, -49.087], [-74.905, -48.99], [-74.704, -49.024], [-74.764, -48.915], [-74.937, -48.976], [-74.824, -48.877], [-74.982, -48.88], [-74.793, -48.799], [-74.855, -48.822], [-74.97, -48.755], [-74.767, -48.669], [-74.747, -48.791], [-74.683, -48.653], [-74.566, -48.733], [-74.625, -48.865], [-74.465, -48.7], [-74.576, -48.954], [-74.407, -48.947], [-74.514, -49.016], [-74.399, -49.275], [-74.424, -49.021], [-74.289, -48.936], [-74.405, -48.875], [-74.339, -48.712], [-74.241, -48.715], [-74.175, -48.64], [-74.36, -48.587], [-74.146, -48.466], [-73.898, -48.612], [-73.98, -48.429], [-73.774, -48.398], [-74.118, -48.362], [-73.993, -48.496], [-74.19, -48.397], [-74.157, -48.447], [-74.446, -48.355], [-74.217, -48.416], [-74.369, -48.332], [-74.279, -48.28], [-74.47, -48.086], [-74.358, -48.0], [-74.536, -48.091], [-74.606, -47.991], [-74.289, -47.999], [-74.215, -48.255], [-74.055, -48.191], [-74.147, -48.223], [-74.259, -48.0], [-74.114, -48.077], [-74.071, -47.966], [-73.822, -48.02], [-73.836, -48.108], [-73.711, -48.024], [-73.746, -48.146], [-73.545, -48.135], [-73.592, -48.251], [-73.323, -48.209], [-73.303, -48.17], [-73.446, -48.125], [-73.602, -47.862], [-73.471, -47.901], [-73.444, -47.842], [-73.681, -47.76], [-73.59, -47.614], [-73.705, -47.526], [-73.712, -47.769], [-73.879, -47.83], [-74.232, -47.781], [-74.032, -47.869], [-73.747, -47.859], [-74.259, -47.964], [-74.469, -47.888], [-74.154, -47.885], [-74.236, -47.78], [-74.679, -47.719], [-74.5, -47.514], [-74.348, -47.604], [-74.544, -47.677], [-74.065, -47.726], [-74.258, -47.652], [-74.027, -47.63], [-74.254, -47.622], [-73.967, -47.605], [-74.096, -47.576], [-73.922, -47.468], [-74.256, -47.589], [-74.058, -47.428], [-74.328, -47.531], [-74.418, -47.453], [-74.206, -47.389], [-74.488, -47.413], [-74.241, -47.186], [-74.195, -47.353], [-74.146, -47.186], [-74.034, -47.376], [-74.093, -47.192], [-73.898, -47.234], [-74.008, -47.143], [-73.909, -47.031], [-74.091, -47.169], [-74.196, -47.098], [-73.839, -46.962], [-73.994, -46.963], [-74.18, -46.865], [-74.063, -46.822], [-74.366, -46.778], [-74.039, -46.679], [-74.565, -46.718], [-74.425, -46.767], [-74.636, -46.839], [-74.967, -46.744], [-75.046, -46.624], [-74.885, -46.433], [-75.154, -46.637], [-75.581, -46.698], [-75.573, -46.81], [-75.321, -46.725], [-75.418, -46.803], [-75.258, -46.846], [-75.314, -46.934], [-75.491, -46.955], [-75.655, -46.717], [-75.303, -46.403], [-75.141, -46.45], [-75.175, -46.303], [-75.097, -46.321], [-75.04, -46.224], [-74.857, -46.301], [-74.874, -46.16], [-74.628, -46.17], [-74.774, -46.126], [-74.544, -46.048], [-74.706, -46.032], [-74.669, -45.905], [-74.877, -46.115], [-75.058, -46.06], [-74.809, -45.997], [-75.003, -46.007], [-74.911, -45.969], [-75.077, -45.876], [-74.774, -45.952], [-74.941, -45.868], [-74.721, -45.818], [-74.704, -45.902], [-74.506, -45.849], [-74.43, -46.051], [-74.324, -45.976], [-74.435, -45.803], [-74.073, -45.813], [-74.256, -45.904], [-74.009, -45.972], [-74.305, -46.008], [-74.059, -46.015], [-74.057, -46.106], [-74.332, -46.122], [-74.051, -46.122], [-74.007, -45.986], [-73.982, -46.147], [-74.448, -46.194], [-74.0, -46.183], [-73.829, -46.349], [-73.951, -46.144], [-73.726, -46.232], [-73.964, -46.608], [-73.592, -46.498], [-73.76, -46.4], [-73.569, -46.302], [-73.239, -46.428], [-73.556, -46.272], [-73.39, -46.046], [-73.194, -45.999], [-73.387, -46.013], [-73.316, -45.899], [-73.009, -45.878], [-73.52, -45.848], [-73.13, -45.651], [-73.276, -45.592], [-73.562, -45.781], [-73.492, -45.467], [-73.198, -45.292], [-72.991, -45.453], [-72.777, -45.406], [-73.51, -45.198], [-73.297, -45.191], [-73.356, -44.955], [-72.674, -44.743], [-72.653, -44.537], [-72.462, -44.561], [-72.607, -44.472], [-72.555, -44.327], [-72.674, -44.511], [-72.913, -44.371], [-72.84, -44.294], [-73.184, -44.249], [-73.034, -44.179], [-73.097, -44.118], [-73.283, -44.162], [-73.084, -44.091], [-72.979, -43.767], [-72.702, -43.844], [-72.817, -43.653], [-72.838, -43.77], [-73.049, -43.738], [-72.875, -43.611], [-73.091, -43.433], [-72.87, -43.233], [-72.859, -43.029], [-72.692, -43.105], [-72.856, -42.767], [-72.81, -42.506], [-72.49, -42.578], [-72.838, -42.294], [-72.582, -42.188], [-72.39, -42.489], [-72.46, -42.201], [-72.348, -42.17], [-72.465, -42.144], [-72.429, -41.975], [-72.614, -42.043], [-72.878, -41.914], [-72.316, -41.656], [-72.275, -41.392], [-72.385, -41.659], [-72.545, -41.71], [-72.939, -41.473], [-73.16, -41.791], [-73.76, -41.746], [-73.329, -41.504], [-73.789, -41.586], [-73.938, -41.06], [-73.716, -40.555], [-73.707, -40.006], [-73.467, -39.851], [-73.289, -39.983], [-73.258, -39.873], [-73.13, -39.929], [-73.252, -39.798], [-73.27, -39.841], [-73.403, -39.871], [-73.204, -39.366], [-73.488, -38.658], [-73.454, -38.082], [-73.666, -37.723], [-73.591, -37.461], [-73.684, -37.336], [-73.587, -37.145], [-73.356, -37.243], [-73.153, -37.118], [-73.217, -36.774], [-73.118, -36.615], [-73.106, -36.722], [-72.977, -36.71], [-72.785, -35.975], [-72.567, -35.795], [-72.618, -35.561], [-72.194, -35.091], [-72.009, -34.132], [-71.603, -33.544], [-71.746, -33.1], [-71.552, -33.008], [-71.407, -32.397], [-71.541, -32.196], [-71.505, -31.77], [-71.717, -30.602], [-71.65, -30.267], [-71.394, -30.183], [-71.417, -29.999], [-71.273, -29.894], [-71.308, -29.418], [-71.494, -29.197], [-71.522, -28.917], [-71.161, -28.362], [-71.051, -27.688], [-70.898, -27.621], [-70.974, -27.172], [-70.808, -27.056], [-70.628, -26.347], [-70.738, -25.817], [-70.447, -25.365], [-70.58, -24.551], [-70.526, -23.862], [-70.392, -23.613], [-70.475, -23.469], [-70.629, -23.516], [-70.604, -23.252], [-70.579, -23.083], [-70.405, -23.083], [-70.29, -22.914], [-70.056, -21.44], [-70.207, -20.811], [-70.132, -19.883], [-70.379, -18.35], [-69.861, -18.171], [-69.755, -17.989], [-69.796, -17.646], [-69.468, -17.498], [-69.286, -17.963], [-69.057, -18.061], [-69.146, -18.163], [-68.95, -18.937], [-68.405, -19.416], [-68.696, -19.738], [-68.522, -19.924], [-68.566, -20.05], [-68.762, -20.078], [-68.661, -20.319], [-68.739, -20.457], [-68.442, -20.635], [-68.542, -20.908], [-68.179, -21.302], [-68.181, -21.604], [-67.839, -22.536], [-67.883, -22.833], [-67.18, -22.814], [-66.99, -23.0], [-67.323, -24.034], [-68.495, -24.6], [-68.568, -24.795], [-68.343, -25.111], [-68.507, -25.168], [-68.589, -25.448], [-68.381, -26.178], [-68.557, -26.286], [-68.588, -26.492], [-68.263, -26.918], [-68.294, -27.038], [-68.576, -27.176], [-68.788, -27.104], [-69.123, -27.901], [-69.65, -28.397], [-69.787, -29.13], [-70.021, -29.329], [-69.877, -29.726], [-69.965, -30.086], [-69.819, -30.187], [-69.955, -30.386], [-70.154, -30.347], [-70.27, -31.044], [-70.524, -31.189], [-70.567, -31.601], [-70.461, -31.844], [-70.209, -31.96], [-70.388, -32.044], [-69.989, -32.898], [-70.064, -33.206], [-69.77, -33.343], [-69.904, -33.773], [-69.797, -34.209], [-70.031, -34.289], [-70.306, -34.748], [-70.374, -35.17], [-70.579, -35.258], [-70.432, -35.319], [-70.312, -35.813], [-70.421, -35.876], [-70.421, -36.156], [-70.578, -36.14], [-70.712, -36.427], [-71.038, -36.477], [-71.009, -36.691], [-71.18, -36.841], [-71.088, -36.939], [-71.222, -36.978], [-71.093, -37.115], [-71.221, -37.275], [-71.118, -37.469], [-71.183, -37.858], [-70.827, -38.596], [-70.925, -38.764], [-71.434, -38.929], [-71.461, -39.583], [-71.717, -39.636], [-71.592, -39.912], [-71.83, -40.217], [-71.657, -40.364], [-71.825, -40.42], [-71.966, -40.727], [-71.818, -41.063], [-71.91, -41.359], [-71.725, -42.11], [-72.188, -42.16], [-72.011, -42.488], [-72.178, -42.689], [-72.142, -42.901], [-71.729, -43.199], [-71.934, -43.45], [-71.581, -43.652], [-71.754, -43.789], [-71.649, -43.946], [-71.85, -44.115], [-71.815, -44.416], [-71.242, -44.418], [-71.096, -44.586], [-71.293, -44.814], [-72.066, -44.759], [-72.04, -44.902], [-71.56, -44.978], [-71.32, -45.293], [-71.528, -45.392], [-71.47, -45.495], [-71.761, -45.557], [-71.768, -45.847], [-71.616, -45.977], [-71.916, -46.139], [-71.727, -46.272], [-71.645, -46.684], [-71.956, -46.815], [-71.865, -47.231], [-72.019, -47.198], [-71.997, -47.295], [-72.342, -47.455], [-72.313, -47.596], [-72.522, -47.741], [-72.528, -47.937], [-72.23, -48.324], [-72.38, -48.35], [-72.442, -48.513], [-72.588, -48.492], [-72.53, -48.796], [-72.99, -48.991], [-73.146, -49.19], [-73.045, -49.451], [-73.561, -49.942], [-73.446, -49.965], [-73.522, -50.154], [-73.363, -50.301], [-73.358, -50.535], [-73.145, -50.651], [-73.201, -50.82], [-72.729, -50.614], [-72.286, -50.659], [-72.265, -51.033], [-72.409, -51.108], [-72.259, -51.253], [-72.442, -51.585], [-71.948, -51.874], [-72.01, -51.977], [-69.995, -52.001], [-68.418, -52.387], [-69.211, -52.196], [-69.453, -52.263], [-69.671, -52.538], [-70.899, -52.73], [-70.735, -52.783], [-70.893, -52.918], [-70.781, -52.937], [-70.988, -53.39], [-70.912, -53.633], [-70.972, -53.786], [-71.294, -53.896], [-72.11, -53.684], [-72.478, -53.399], [-72.119, -53.254], [-72.219, -53.452], [-71.87, -53.226], [-71.786, -53.395], [-71.741, -53.209], [-71.357, -53.123], [-71.115, -52.908], [-71.559, -52.563], [-72.323, -52.533], [-72.431, -52.676], [-72.563, -52.603], [-72.403, -52.508], [-72.865, -52.543], [-72.994, -52.757], [-72.856, -52.618], [-72.672, -52.68], [-73.068, -52.855], [-72.976, -52.893], [-73.01, -52.855], [-72.682, -52.723], [-72.603, -52.771], [-72.718, -52.905], [-72.576, -52.804], [-72.639, -52.878], [-72.44, -52.886], [-72.165, -52.648], [-71.468, -52.662], [-71.41, -52.834], [-72.024, -53.132], [-72.604, -53.074], [-72.204, -53.195], [-72.621, -53.2], [-72.421, -53.259], [-72.678, -53.347], [-72.391, -53.534], [-73.313, -53.165], [-72.939, -53.174], [-72.75, -53.314], [-72.684, -53.259], [-72.854, -53.19], [-72.662, -53.153], [-72.973, -53.109], [-72.847, -53.037], [-72.947, -52.925], [-72.989, -53.076], [-73.447, -53.023], [-73.144, -52.922], [-73.572, -52.816], [-73.229, -52.807], [-73.379, -52.564], [-73.376, -52.73], [-73.438, -52.646], [-73.722, -52.756], [-73.549, -52.657], [-73.663, -52.645], [-73.621, -52.551], [-73.453, -52.514], [-73.65, -52.43], [-73.55, -52.213], [-73.733, -52.044], [-73.363, -52.222], [-73.004, -52.06], [-73.134, -52.234], [-72.997, -52.181], [-72.902, -52.297], [-72.739, -52.082], [-72.912, -52.221], [-72.959, -52.052], [-72.771, -51.948], [-72.522, -52.221], [-72.581, -52.315], [-72.474, -52.217], [-72.665, -51.976], [-72.463, -51.921], [-72.453, -51.776], [-72.687, -51.563], [-72.667, -51.654], [-72.776, -51.606], [-72.541, -51.767], [-72.733, -51.842], [-73.292, -51.571], [-73.284, -51.692], [-73.0, -51.784], [-73.166, -51.77], [-73.035, -51.822], [-73.209, -51.893], [-72.912, -51.853], [-72.989, -51.913], [-72.89, -51.875], [-73.111, -52.086], [-73.094, -51.996], [-73.228, -52.1], [-73.399, -51.638], [-73.268, -52.159], [-73.522, -52.065], [-73.645, -51.822], [-73.418, -51.997], [-73.595, -51.745], [-73.443, -51.676], [-73.621, -51.642], [-73.707, -51.794], [-73.826, -51.666], [-73.738, -51.647], [-73.926, -51.606], [-73.771, -51.54], [-73.98, -51.491], [-73.811, -51.392], [-73.585, -51.618], [-73.68, -51.478], [-73.58, -51.542], [-73.559, -51.45], [-73.774, -51.228], [-73.663, -51.28], [-73.674, -51.143], [-73.827, -51.063], [-73.765, -51.187], [-73.9, -51.258], [-74.002, -51.104], [-74.076, -51.208], [-74.145, -51.065], [-74.04, -50.947], [-74.191, -51.057], [-74.245, -50.963], [-74.111, -50.87], [-73.675, -50.938], [-73.876, -50.837], [-73.718, -50.827], [-73.762, -50.656], [-73.467, -50.676], [-73.747, -50.543], [-73.547, -50.379], [-73.768, -50.524], [-73.822, -50.775], [-74.029, -50.851], [-74.229, -50.587], [-74.088, -50.579], [-74.298, -50.469], [-73.862, -50.558], [-74.159, -50.432], [-73.967, -50.365], [-74.246, -50.447], [-74.29, -50.24], [-74.354, -50.405], [-74.637, -50.234], [-74.572, -50.174], [-74.705, -50.203], [-74.407, -50.108], [-74.613, -50.102], [-74.433, -50.015], [-74.259, -50.128], [-74.352, -50.191], [-73.97, -50.279], [-74.357, -49.975], [-73.975, -50.074], [-73.813, -49.831], [-74.022, -49.983], [-74.276, -49.907], [-74.319, -49.782], [-74.02, -49.72], [-74.28, -49.767], [-74.307, -49.645], [-74.066, -49.54], [-74.032, -49.652], [-73.93, -49.572], [-74.074, -49.505], [-74.006, -49.257], [-73.754, -49.413], [-74.018, -49.208], [-74.158, -49.199], [-74.161, -49.541], [-74.387, -49.395], [-74.395, -49.311], [-74.549, -49.513], [-74.445, -49.609], [-74.557, -49.637], [-74.389, -49.679], [-74.398, -49.772], [-74.545, -49.736], [-74.406, -49.902], [-74.479, -49.841], [-74.498, -49.98], [-74.631, -49.877], [-74.512, -49.985], [-74.634, -50.059], [-74.881, -49.992], [-74.652, -49.904], [-74.913, -49.936], [-74.611, -49.793], [-74.814, -49.85], [-74.708, -49.721], [-74.835, -49.815], [-74.912, -49.674], [-74.676, -49.634], [-74.873, -49.53], [-74.701, -49.516], [-74.587, -49.306], [-74.71, -49.403], [-74.806, -49.332], [-74.717, -49.413], [-74.861, -49.504], [-74.856, -49.388], [-74.935, -49.54], [-74.94, -49.429], [-74.975, -49.593], [-75.088, -49.534], [-75.011, -49.699], [-74.924, -49.624], [-74.997, -49.899], [-75.253, -49.656], [-75.141, -49.574], [-75.258, -49.615]], [[-75.176, -49.408], [-75.17, -49.413], [-74.946, -49.402], [-75.176, -49.408]], [[-72.67, -52.396], [-72.995, -52.491], [-72.557, -52.487], [-72.691, -52.415], [-72.67, -52.396]], [[-71.8, -53.449], [-72.121, -53.557], [-71.817, -53.521], [-71.8, -53.449]], [[-73.159, -48.183], [-73.081, -48.17], [-73.13, -48.084], [-73.159, -48.183]], [[-74.247, -48.312], [-74.195, -48.389], [-74.14, -48.359], [-74.205, -48.353], [-73.909, -48.31], [-74.226, -48.333], [-74.247, -48.312]], [[-73.241, -39.774], [-73.084, -39.705], [-73.163, -39.592], [-73.241, -39.774]], [[-72.958, -51.525], [-73.075, -51.473], [-73.109, -51.333], [-73.267, -51.491], [-73.057, -51.493], [-73.112, -51.606], [-73.0, -51.51], [-72.958, -51.525]]], [[[-74.856, -48.823], [-74.979, -48.868], [-74.997, -48.768], [-74.856, -48.823]]], [[[-67.972, -54.894], [-67.218, -54.949], [-67.045, -55.158], [-67.26, -55.33], [-67.436, -55.317], [-67.506, -55.176], [-67.834, -55.28], [-67.736, -55.228], [-68.115, -55.224], [-68.174, -54.992], [-68.378, -54.947], [-67.972, -54.894]]], [[[-67.086, -55.816], [-67.065, -55.907], [-67.172, -55.875], [-67.086, -55.816]]], [[[-67.291, -55.807], [-67.196, -55.881], [-67.423, -55.824], [-67.291, -55.807]]], [[[-67.371, -55.57], [-67.262, -55.785], [-67.573, -55.738], [-67.537, -55.645], [-67.417, -55.718], [-67.498, -55.621], [-67.371, -55.57]]], [[[-67.591, -55.799], [-67.506, -55.825], [-67.618, -55.914], [-67.914, -55.841], [-67.591, -55.799]]], [[[-67.659, -55.5], [-67.565, -55.597], [-67.744, -55.62], [-67.659, -55.5]]], [[[-68.614, -55.16], [-68.245, -55.226], [-68.328, -55.234], [-68.171, -55.291], [-68.725, -55.278], [-68.134, -55.389], [-67.983, -55.676], [-68.262, -55.63], [-68.216, -55.532], [-68.532, -55.407], [-68.917, -55.462], [-68.687, -55.387], [-68.933, -55.404], [-68.774, -55.187], [-69.486, -55.266], [-69.072, -55.476], [-69.288, -55.517], [-69.331, -55.422], [-69.353, -55.557], [-69.484, -55.44], [-69.35, -55.4], [-69.787, -55.346], [-69.473, -55.198], [-69.853, -55.306], [-69.969, -55.203], [-69.802, -55.197], [-70.035, -55.187], [-69.57, -55.053], [-69.542, -55.186], [-69.543, -55.049], [-68.504, -54.924], [-68.325, -55.077], [-68.443, -55.022], [-68.614, -55.16]]], [[[-71.343, -54.373], [-70.997, -54.456], [-70.87, -54.333], [-70.581, -54.348], [-70.764, -54.623], [-70.621, -54.607], [-70.706, -54.537], [-70.558, -54.402], [-70.104, -54.558], [-70.527, -54.302], [-70.873, -54.256], [-70.932, -54.117], [-70.131, -54.437], [-70.036, -54.384], [-70.198, -54.315], [-69.987, -54.269], [-69.767, -54.605], [-69.846, -54.288], [-69.611, -54.365], [-69.585, -54.499], [-69.494, -54.337], [-69.2, -54.45], [-69.515, -54.675], [-69.339, -54.722], [-69.26, -54.543], [-68.963, -54.447], [-69.921, -54.163], [-70.176, -53.803], [-69.355, -53.523], [-69.333, -53.396], [-70.214, -53.477], [-70.448, -53.374], [-70.418, -53.013], [-70.247, -53.062], [-70.089, -52.928], [-70.437, -52.779], [-70.142, -52.731], [-69.92, -52.845], [-69.43, -52.453], [-69.146, -52.696], [-68.769, -52.543], [-68.607, -52.659], [-68.609, -54.893], [-68.83, -54.83], [-68.705, -54.912], [-69.082, -54.966], [-69.653, -54.846], [-69.585, -54.773], [-69.705, -54.704], [-69.689, -54.837], [-69.784, -54.727], [-69.769, -54.834], [-69.921, -54.846], [-69.937, -54.679], [-69.95, -54.85], [-70.321, -54.86], [-70.228, -54.687], [-70.35, -54.845], [-70.646, -54.824], [-70.368, -54.871], [-70.67, -54.91], [-70.852, -54.826], [-70.731, -54.734], [-70.947, -54.752], [-70.766, -54.686], [-71.027, -54.773], [-70.926, -54.616], [-71.217, -54.696], [-71.309, -54.653], [-71.138, -54.623], [-71.34, -54.518], [-71.494, -54.685], [-71.476, -54.582], [-71.911, -54.647], [-72.018, -54.516], [-71.518, -54.552], [-71.877, -54.421], [-71.525, -54.516], [-71.427, -54.492], [-71.614, -54.395], [-71.366, -54.462], [-71.343, -54.373]]], [[[-69.662, -54.882], [-69.13, -54.969], [-69.93, -55.069], [-69.945, -54.968], [-69.806, -54.967], [-69.937, -54.918], [-69.797, -54.885], [-69.754, -54.991], [-69.662, -54.882]]], [[[-69.759, -55.375], [-69.623, -55.426], [-69.789, -55.459], [-69.759, -55.375]]], [[[-69.967, -55.317], [-70.005, -55.409], [-70.132, -55.329], [-69.967, -55.317]]], [[[-70.544, -54.18], [-70.881, -54.06], [-70.908, -53.882], [-70.613, -53.87], [-70.715, -53.698], [-70.471, -53.568], [-70.332, -54.019], [-70.681, -53.928], [-70.544, -54.18]]], [[[-70.472, -54.949], [-70.756, -55.011], [-70.301, -55.04], [-70.478, -55.212], [-70.595, -55.061], [-71.034, -55.057], [-70.869, -54.925], [-70.312, -54.904], [-70.472, -54.949]]], [[[-70.307, -54.046], [-70.34, -54.157], [-70.508, -54.087], [-70.307, -54.046]]], [[[-71.292, -54.821], [-70.914, -54.922], [-71.48, -54.873], [-71.292, -54.821]]], [[[-71.59, -53.936], [-71.44, -53.95], [-71.403, -54.093], [-71.391, -53.971], [-71.272, -54.0], [-71.206, -54.212], [-71.19, -54.105], [-71.002, -54.09], [-71.077, -54.204], [-70.972, -54.164], [-70.97, -54.278], [-71.146, -54.399], [-71.358, -54.317], [-71.17, -54.244], [-71.372, -54.263], [-71.4, -54.115], [-71.534, -54.127], [-71.387, -54.329], [-71.514, -54.323], [-71.522, -54.186], [-71.706, -54.166], [-71.565, -54.085], [-71.59, -53.936]]], [[[-71.594, -54.7], [-71.517, -54.736], [-71.633, -54.783], [-71.594, -54.7]]], [[[-72.396, -54.272], [-72.603, -54.265], [-72.221, -54.066], [-72.286, -53.918], [-71.999, -54.023], [-72.113, -53.941], [-71.971, -53.982], [-72.069, -53.947], [-71.915, -53.85], [-71.85, -53.981], [-71.65, -53.925], [-71.767, -54.048], [-71.613, -54.092], [-71.748, -54.171], [-71.952, -54.044], [-71.729, -54.24], [-71.897, -54.287], [-71.788, -54.336], [-72.144, -54.203], [-72.001, -54.137], [-72.166, -54.123], [-72.05, -54.103], [-72.132, -54.035], [-72.42, -54.25], [-72.396, -54.272]]], [[[-72.391, -54.276], [-72.302, -54.359], [-72.505, -54.424], [-72.547, -54.348], [-72.391, -54.276]]], [[[-72.082, -53.821], [-72.102, -53.921], [-72.216, -53.88], [-72.082, -53.821]]], [[[-73.034, -53.378], [-72.851, -53.514], [-72.923, -53.648], [-72.811, -53.609], [-72.851, -53.451], [-72.677, -53.65], [-72.666, -53.524], [-72.384, -53.64], [-72.622, -53.723], [-72.387, -53.678], [-72.149, -53.795], [-72.476, -53.832], [-72.351, -53.852], [-72.473, -53.89], [-72.366, -54.057], [-72.478, -53.969], [-72.55, -54.11], [-72.627, -54.019], [-72.779, -54.049], [-72.878, -53.976], [-72.696, -53.983], [-72.805, -53.943], [-72.653, -53.873], [-72.853, -53.884], [-72.731, -53.76], [-72.834, -53.761], [-73.044, -53.909], [-72.813, -53.705], [-73.214, -53.727], [-72.929, -53.623], [-73.246, -53.633], [-73.433, -53.465], [-73.033, -53.538], [-73.171, -53.4], [-73.034, -53.378]]], [[[-72.523, -42.075], [-72.49, -42.17], [-72.609, -42.134], [-72.523, -42.075]]], [[[-72.969, -44.367], [-72.983, -44.576], [-72.868, -44.427], [-72.689, -44.539], [-72.804, -44.647], [-72.967, -44.582], [-72.82, -44.734], [-73.289, -44.919], [-73.391, -44.815], [-73.16, -44.812], [-73.363, -44.799], [-73.452, -44.639], [-73.21, -44.635], [-73.278, -44.542], [-73.114, -44.567], [-73.247, -44.436], [-73.004, -44.496], [-73.098, -44.392], [-72.969, -44.367]]], [[[-73.037, -41.757], [-72.993, -41.862], [-73.115, -41.806], [-73.037, -41.757]]], [[[-73.232, -53.805], [-73.077, -53.905], [-73.31, -53.86], [-73.232, -53.805]]], [[[-74.679, -52.716], [-74.324, -52.981], [-74.125, -52.941], [-73.628, -53.182], [-73.599, -53.081], [-73.534, -53.273], [-73.893, -53.072], [-74.106, -53.057], [-73.983, -53.108], [-74.076, -53.14], [-74.246, -53.035], [-74.229, -53.142], [-74.32, -53.126], [-74.476, -52.913], [-74.62, -52.912], [-74.545, -52.867], [-74.714, -52.799], [-74.679, -52.716]]], [[[-73.522, -53.28], [-73.431, -53.248], [-73.477, -53.143], [-73.095, -53.374], [-73.609, -53.337], [-73.462, -53.313], [-73.522, -53.28]]], [[[-73.232, -44.312], [-73.152, -44.384], [-73.28, -44.389], [-73.232, -44.312]]], [[[-73.371, -54.012], [-73.211, -54.136], [-73.493, -54.079], [-73.371, -54.012]]], [[[-73.397, -53.592], [-73.251, -53.662], [-73.485, -53.638], [-73.397, -53.592]]], [[[-73.864, -46.0], [-73.647, -46.074], [-73.636, -45.975], [-73.512, -45.869], [-73.322, -45.898], [-73.675, -46.329], [-73.647, -46.077], [-73.726, -46.208], [-73.922, -46.091], [-73.864, -46.0]]], [[[-73.573, -53.385], [-73.37, -53.418], [-73.515, -53.496], [-73.327, -53.581], [-73.549, -53.516], [-73.663, -53.461], [-73.482, -53.454], [-73.573, -53.385]]], [[[-73.585, -52.84], [-73.337, -52.938], [-73.799, -52.925], [-73.585, -52.84]]], [[[-73.901, -41.768], [-73.997, -41.853], [-73.476, -41.832], [-73.563, -41.954], [-73.337, -42.265], [-73.669, -42.387], [-73.629, -42.451], [-73.592, -42.382], [-73.388, -42.583], [-73.609, -42.482], [-73.576, -42.535], [-73.775, -42.534], [-73.788, -42.611], [-73.463, -42.883], [-73.752, -42.85], [-73.478, -43.131], [-73.731, -43.094], [-73.661, -43.318], [-73.876, -43.28], [-73.847, -43.429], [-74.407, -43.261], [-74.152, -42.855], [-74.053, -41.803], [-73.901, -41.768]]], [[[-73.59, -42.577], [-73.534, -42.7], [-73.744, -42.631], [-73.59, -42.577]]], [[[-73.67, -45.436], [-73.543, -45.484], [-73.558, -45.645], [-73.673, -45.607], [-73.624, -45.769], [-73.815, -45.645], [-73.67, -45.436]]], [[[-73.724, -44.531], [-73.584, -44.592], [-73.717, -44.73], [-73.587, -44.73], [-73.744, -44.752], [-73.88, -44.596], [-73.789, -44.66], [-73.724, -44.531]]], [[[-73.612, -44.738], [-73.599, -44.833], [-73.731, -44.805], [-73.612, -44.738]]], [[[-74.498, -51.709], [-74.055, -51.884], [-74.064, -51.905], [-73.897, -52.032], [-73.941, -52.032], [-74.065, -51.905], [-74.1, -51.981], [-74.498, -51.709]]], [[[-73.851, -52.066], [-73.642, -52.225], [-73.879, -52.115], [-73.851, -52.066]]], [[[-73.727, -52.423], [-73.648, -52.493], [-73.803, -52.546], [-73.701, -52.591], [-73.773, -52.707], [-73.939, -52.73], [-73.842, -52.57], [-74.072, -52.647], [-73.727, -52.423]]], [[[-73.832, -53.472], [-73.656, -53.567], [-73.854, -53.607], [-73.832, -53.472]]], [[[-73.656, -44.342], [-73.665, -44.442], [-73.793, -44.374], [-73.656, -44.342]]], [[[-73.7, -45.816], [-73.661, -46.03], [-73.8, -46.003], [-73.706, -45.879], [-73.911, -45.982], [-73.7, -45.816]]], [[[-73.946, -45.246], [-73.823, -45.207], [-74.127, -45.165], [-74.15, -45.051], [-74.226, -45.146], [-74.171, -45.03], [-73.803, -44.99], [-73.688, -45.286], [-73.796, -45.275], [-73.77, -45.355], [-74.087, -45.368], [-74.157, -45.241], [-73.946, -45.246]]], [[[-74.203, -52.083], [-73.752, -52.274], [-73.716, -52.413], [-74.203, -52.083]]], [[[-73.798, -51.255], [-73.732, -51.379], [-73.87, -51.352], [-73.798, -51.255]]], [[[-74.049, -51.53], [-73.973, -51.702], [-74.058, -51.727], [-73.822, -51.919], [-73.779, -51.895], [-73.746, -52.025], [-73.863, -51.942], [-73.823, -51.92], [-74.248, -51.721], [-74.082, -51.68], [-74.15, -51.593], [-74.049, -51.53]]], [[[-73.818, -44.376], [-73.878, -44.439], [-73.753, -44.452], [-73.901, -44.454], [-73.818, -44.376]]], [[[-73.852, -44.775], [-73.762, -44.955], [-73.918, -44.865], [-73.795, -44.895], [-73.852, -44.775]]], [[[-73.882, -53.112], [-73.768, -53.245], [-73.971, -53.125], [-73.882, -53.112]]], [[[-74.086, -45.593], [-74.102, -45.594], [-74.026, -45.426], [-73.775, -45.463], [-73.838, -45.574], [-73.91, -45.58], [-73.858, -45.612], [-73.956, -45.736], [-74.098, -45.599], [-74.086, -45.593]]], [[[-73.846, -43.771], [-73.785, -43.836], [-73.942, -43.852], [-73.939, -43.954], [-74.158, -43.863], [-73.846, -43.771]]], [[[-74.015, -44.141], [-73.95, -44.174], [-73.918, -44.098], [-73.802, -44.186], [-73.92, -44.189], [-73.854, -44.223], [-73.954, -44.334], [-74.104, -44.205], [-73.981, -44.228], [-74.015, -44.141]]], [[[-74.097, -44.595], [-73.84, -44.699], [-74.244, -44.807], [-74.367, -44.721], [-74.108, -44.728], [-74.412, -44.657], [-74.097, -44.595]]], [[[-74.024, -45.74], [-73.872, -45.748], [-73.996, -45.934], [-74.024, -45.74]]], [[[-74.137, -44.863], [-73.893, -44.965], [-74.386, -45.003], [-74.137, -44.863]]], [[[-74.402, -52.157], [-74.428, -52.146], [-74.268, -52.096], [-73.902, -52.363], [-74.076, -52.292], [-73.955, -52.378], [-74.245, -52.375], [-74.173, -52.252], [-74.311, -52.195], [-74.465, -52.209], [-74.402, -52.157]]], [[[-73.98, -44.509], [-73.922, -44.539], [-74.091, -44.545], [-73.98, -44.509]]], [[[-74.038, -51.227], [-73.924, -51.334], [-74.031, -51.387], [-74.038, -51.227]]], [[[-73.991, -44.772], [-73.93, -44.833], [-74.189, -44.82], [-73.991, -44.772]]], [[[-74.132, -44.305], [-74.074, -44.418], [-74.188, -44.381], [-74.132, -44.305]]], [[[-74.204, -51.29], [-74.08, -51.446], [-74.237, -51.412], [-74.204, -51.29]]], [[[-74.179, -44.475], [-74.101, -44.555], [-74.36, -44.541], [-74.179, -44.475]]], [[[-74.274, -45.759], [-74.114, -45.802], [-74.323, -45.769], [-74.274, -45.759]]], [[[-74.228, -50.847], [-74.605, -50.647], [-74.352, -50.534], [-74.692, -50.488], [-74.358, -50.46], [-74.207, -50.682], [-74.404, -50.654], [-74.204, -50.711], [-74.145, -50.845], [-74.228, -50.847]]], [[[-74.305, -50.913], [-74.164, -51.208], [-74.24, -51.256], [-74.305, -50.913]]], [[[-74.384, -45.445], [-74.178, -45.629], [-74.448, -45.784], [-74.384, -45.445]]], [[[-74.39, -45.162], [-74.194, -45.222], [-74.198, -45.346], [-74.39, -45.162]]], [[[-74.299, -44.39], [-74.219, -44.489], [-74.557, -44.482], [-74.299, -44.39]]], [[[-74.308, -44.226], [-74.232, -44.304], [-74.417, -44.254], [-74.308, -44.226]]], [[[-74.375, -49.419], [-74.233, -49.549], [-74.385, -49.636], [-74.375, -49.419]]], [[[-74.46, -48.374], [-74.235, -48.472], [-74.36, -48.537], [-74.46, -48.374]]], [[[-74.316, -44.33], [-74.244, -44.373], [-74.422, -44.394], [-74.316, -44.33]]], [[[-74.368, -45.044], [-74.246, -45.166], [-74.413, -45.121], [-74.368, -45.044]]], [[[-74.398, -45.282], [-74.262, -45.41], [-74.52, -45.329], [-74.398, -45.282]]], [[[-74.282, -47.03], [-74.427, -47.169], [-74.449, -47.074], [-74.282, -47.03]]], [[[-74.459, -44.717], [-74.3, -44.841], [-74.449, -44.842], [-74.459, -44.717]]], [[[-74.544, -48.107], [-74.422, -48.188], [-74.532, -48.273], [-74.544, -48.107]]], [[[-74.419, -48.19], [-74.307, -48.264], [-74.477, -48.337], [-74.419, -48.19]]], [[[-74.631, -50.712], [-74.427, -50.774], [-74.513, -50.859], [-74.399, -50.816], [-74.373, -51.086], [-74.458, -50.99], [-74.749, -51.099], [-74.602, -50.957], [-74.796, -51.085], [-74.891, -51.055], [-74.77, -50.98], [-74.952, -50.988], [-74.855, -50.915], [-74.931, -50.88], [-74.533, -50.919], [-74.638, -50.896], [-74.519, -50.811], [-74.631, -50.712]]], [[[-74.449, -51.02], [-74.395, -51.227], [-74.585, -51.103], [-74.449, -51.02]]], [[[-74.429, -45.439], [-74.488, -45.601], [-74.545, -45.514], [-74.429, -45.439]]], [[[-74.607, -44.608], [-74.434, -44.691], [-74.676, -44.677], [-74.607, -44.608]]], [[[-75.168, -48.066], [-74.839, -48.16], [-74.902, -48.26], [-74.736, -48.169], [-74.846, -48.293], [-74.769, -48.239], [-74.777, -48.366], [-74.842, -48.393], [-74.711, -48.546], [-74.658, -48.465], [-74.767, -48.299], [-74.686, -48.114], [-74.458, -48.675], [-74.959, -48.572], [-74.846, -48.394], [-74.977, -48.447], [-75.168, -48.066]]], [[[-74.684, -50.352], [-74.54, -50.405], [-74.751, -50.516], [-74.684, -50.352]]], [[[-74.608, -51.189], [-74.544, -51.387], [-74.73, -51.294], [-74.752, -51.424], [-75.036, -51.475], [-74.784, -51.328], [-74.969, -51.384], [-74.93, -51.292], [-74.608, -51.189]]], [[[-74.74, -43.521], [-74.553, -43.628], [-74.771, -43.683], [-74.838, -43.563], [-74.74, -43.521]]], [[[-74.603, -51.091], [-74.562, -51.182], [-74.759, -51.164], [-74.603, -51.091]]], [[[-74.833, -52.199], [-74.71, -52.207], [-74.794, -52.178], [-74.575, -52.09], [-74.668, -52.209], [-74.581, -52.214], [-74.698, -52.337], [-74.911, -52.227], [-74.833, -52.199]]], [[[-74.72, -51.837], [-74.649, -51.839], [-74.728, -51.821], [-74.657, -51.767], [-74.626, -51.839], [-74.576, -51.84], [-74.719, -52.006], [-74.634, -51.991], [-74.889, -52.154], [-74.72, -51.837]]], [[[-74.82, -50.655], [-74.717, -50.692], [-74.723, -50.888], [-74.636, -50.816], [-74.684, -50.903], [-74.938, -50.845], [-74.844, -50.808], [-74.941, -50.723], [-74.807, -50.732], [-74.93, -50.675], [-74.82, -50.655]]], [[[-74.981, -47.871], [-74.925, -47.913], [-74.838, -47.791], [-74.767, -47.994], [-74.841, -47.975], [-74.753, -48.04], [-75.032, -48.031], [-74.824, -48.157], [-75.095, -48.066], [-74.969, -47.982], [-75.219, -48.029], [-74.981, -47.871]]], [[[-74.953, -48.603], [-74.765, -48.656], [-74.967, -48.746], [-74.851, -48.69], [-74.953, -48.603]]], [[[-75.292, -49.993], [-74.931, -50.089], [-75.051, -50.186], [-74.771, -50.171], [-75.02, -50.225], [-74.931, -50.247], [-75.156, -50.342], [-75.151, -50.476], [-75.34, -50.442], [-75.184, -50.293], [-75.452, -50.379], [-75.418, -50.166], [-75.205, -50.27], [-75.094, -50.131], [-75.407, -50.07], [-75.292, -49.993]]], [[[-74.848, -51.627], [-74.779, -51.863], [-74.933, -51.658], [-74.848, -51.627]]], [[[-74.927, -51.811], [-74.933, -51.927], [-74.78, -51.878], [-75.003, -52.144], [-74.939, -52.052], [-75.064, -52.019], [-74.927, -51.811]]], [[[-74.915, -51.091], [-74.831, -51.155], [-75.016, -51.184], [-74.915, -51.091]]], [[[-74.951, -50.272], [-74.913, -50.355], [-75.076, -50.357], [-74.954, -50.395], [-75.137, -50.384], [-74.951, -50.272]]], [[[-74.97, -50.647], [-74.978, -50.818], [-75.103, -50.711], [-74.97, -50.647]]], [[[-75.115, -51.25], [-75.142, -51.391], [-75.081, -51.295], [-74.977, -51.362], [-75.313, -51.642], [-75.115, -51.25]]], [[[-75.223, -48.769], [-74.994, -48.933], [-75.139, -48.995], [-75.199, -48.905], [-75.231, -49.066], [-75.255, -48.903], [-75.448, -49.037], [-75.545, -48.973], [-75.433, -48.91], [-75.631, -48.934], [-75.495, -48.781], [-75.39, -48.804], [-75.513, -48.884], [-75.343, -48.795], [-75.394, -48.871], [-75.201, -48.901], [-75.223, -48.769]]], [[[-75.001, -48.6], [-75.047, -48.826], [-75.218, -48.763], [-75.001, -48.6]]], [[[-75.311, -47.999], [-75.323, -48.15], [-75.255, -48.069], [-75.305, -48.167], [-75.208, -48.128], [-75.155, -48.432], [-75.075, -48.383], [-75.007, -48.53], [-75.175, -48.689], [-75.212, -48.311], [-75.5, -48.376], [-75.299, -48.261], [-75.435, -48.326], [-75.343, -48.178], [-75.452, -48.241], [-75.532, -48.089], [-75.311, -47.999]]], [[[-75.132, -44.766], [-75.03, -44.901], [-75.163, -44.92], [-75.132, -44.766]]], [[[-75.077, -47.667], [-75.136, -47.78], [-75.045, -47.814], [-75.35, -47.783], [-75.077, -47.667]]], [[[-75.392, -50.465], [-75.06, -50.505], [-75.206, -50.618], [-75.32, -50.551], [-75.227, -50.636], [-75.301, -50.808], [-75.454, -50.738], [-75.343, -50.683], [-75.509, -50.669], [-75.322, -50.601], [-75.467, -50.521], [-75.392, -50.465]]], [[[-75.545, -49.702], [-75.599, -49.624], [-75.352, -49.572], [-75.144, -49.882], [-75.348, -49.854], [-75.354, -49.687], [-75.611, -49.848], [-75.545, -49.702]]], [[[-75.291, -48.414], [-75.233, -48.588], [-75.563, -48.643], [-75.322, -48.523], [-75.575, -48.596], [-75.598, -48.45], [-75.291, -48.414]]], [[[-75.28, -48.943], [-75.279, -49.117], [-75.462, -49.244], [-75.63, -49.193], [-75.28, -48.943]]], [[[-75.609, -48.975], [-75.457, -49.046], [-75.693, -49.014], [-75.609, -48.975]]], [[[-78.873, -33.606], [-78.772, -33.677], [-78.946, -33.681], [-78.873, -33.606]]], [[[-109.397, -27.067], [-109.228, -27.106], [-109.431, -27.197], [-109.397, -27.067]]]]}}, {"type": "Feature", "properties": {"country_iso": "COL", "country_name": "Colombia"}, "geometry": {"type": "Polygon", "coordinates": [[[-76.654, 0.252], [-77.528, 0.4], [-77.481, 0.657], [-77.666, 0.705], [-77.665, 0.818], [-78.185, 0.938], [-78.311, 1.191], [-78.615, 1.246], [-79.01, 1.632], [-78.81, 1.829], [-78.554, 1.758], [-78.713, 2.164], [-78.557, 2.492], [-78.333, 2.656], [-77.787, 2.692], [-77.667, 3.045], [-77.054, 3.869], [-77.282, 3.839], [-77.196, 4.055], [-77.359, 3.926], [-77.525, 4.126], [-77.3, 4.747], [-77.39, 5.444], [-77.539, 5.487], [-77.243, 5.767], [-77.483, 6.192], [-77.325, 6.549], [-77.702, 6.842], [-77.659, 6.995], [-77.884, 7.217], [-77.701, 7.506], [-77.729, 7.695], [-77.563, 7.507], [-77.325, 7.896], [-77.159, 7.932], [-77.448, 8.473], [-77.409, 8.644], [-76.942, 8.249], [-76.932, 8.092], [-76.814, 8.134], [-76.922, 7.918], [-76.757, 7.915], [-76.759, 8.395], [-76.938, 8.555], [-76.333, 8.925], [-75.949, 9.444], [-75.629, 9.435], [-75.571, 9.618], [-75.704, 9.7], [-75.523, 10.236], [-75.703, 10.142], [-75.503, 10.301], [-75.513, 10.571], [-75.262, 10.801], [-74.855, 11.105], [-74.303, 10.985], [-74.107, 11.348], [-73.279, 11.285], [-72.769, 11.679], [-72.228, 11.889], [-72.143, 12.239], [-71.961, 12.258], [-71.93, 12.151], [-71.862, 12.217], [-71.956, 12.273], [-71.671, 12.459], [-71.302, 12.353], [-71.127, 12.016], [-71.324, 11.833], [-71.971, 11.646], [-72.249, 11.14], [-72.498, 11.086], [-72.901, 10.436], [-72.946, 9.837], [-73.369, 9.173], [-73.009, 9.291], [-72.948, 9.092], [-72.766, 9.106], [-72.655, 8.614], [-72.38, 8.31], [-72.475, 7.487], [-72.194, 7.384], [-72.048, 7.038], [-71.024, 6.974], [-70.687, 7.104], [-70.322, 6.935], [-70.118, 6.979], [-69.428, 6.107], [-69.237, 6.08], [-69.046, 6.222], [-68.645, 6.129], [-68.028, 6.196], [-67.81, 6.324], [-67.458, 6.196], [-67.41, 5.995], [-67.597, 5.828], [-67.625, 5.476], [-67.85, 5.304], [-67.858, 4.531], [-67.634, 3.786], [-67.501, 3.767], [-67.311, 3.378], [-67.864, 2.789], [-67.614, 2.812], [-67.188, 2.35], [-66.851, 1.224], [-67.093, 1.171], [-67.128, 1.777], [-67.303, 1.901], [-67.395, 2.233], [-67.658, 1.99], [-67.775, 2.035], [-67.908, 1.805], [-68.199, 2.039], [-68.285, 1.83], [-68.163, 1.728], [-69.846, 1.714], [-69.847, 1.078], [-69.244, 1.056], [-69.116, 0.644], [-69.353, 0.614], [-69.481, 0.736], [-69.607, 0.613], [-70.046, 0.563], [-70.065, -0.165], [-69.608, -0.501], [-69.626, -0.746], [-69.395, -1.122], [-69.95, -4.229], [-70.288, -3.821], [-70.713, -3.795], [-70.06, -2.76], [-70.358, -2.567], [-70.301, -2.505], [-70.618, -2.485], [-70.992, -2.211], [-70.994, -2.309], [-71.396, -2.411], [-71.742, -2.146], [-72.157, -2.481], [-72.631, -2.36], [-72.933, -2.458], [-73.173, -2.221], [-73.069, -2.088], [-73.147, -1.805], [-73.534, -1.708], [-73.458, -1.571], [-73.571, -1.322], [-73.864, -1.229], [-74.024, -1.006], [-74.274, -0.98], [-74.393, -0.544], [-74.787, -0.201], [-75.807, 0.047], [-76.274, 0.435], [-76.421, 0.236], [-76.654, 0.252]]]}}, {"type": "Feature", "properties": {"country_iso": "CRI", "country_name": "Costa Rica"}, "geometry": {"type": "Polygon", "coordinates": [[[-85.157, 10.012], [-84.864, 9.829], [-85.111, 9.558], [-85.297, 9.808], [-85.668, 9.904], [-85.836, 10.201], [-85.812, 10.516], [-85.627, 10.623], [-85.677, 10.801], [-85.95, 10.89], [-85.712, 10.926], [-85.61, 11.219], [-84.911, 10.944], [-84.68, 11.084], [-84.358, 10.996], [-84.203, 10.782], [-83.932, 10.707], [-83.67, 10.798], [-83.647, 10.92], [-83.371, 10.331], [-82.553, 9.548], [-82.853, 9.613], [-82.934, 9.475], [-82.934, 9.078], [-82.712, 8.924], [-82.919, 8.765], [-82.839, 8.48], [-83.052, 8.335], [-82.901, 8.04], [-83.146, 8.367], [-83.176, 8.645], [-83.482, 8.717], [-83.285, 8.542], [-83.292, 8.374], [-83.732, 8.592], [-83.581, 8.848], [-83.779, 9.193], [-84.536, 9.519], [-84.74, 9.968], [-85.244, 10.196], [-85.157, 10.012]]]}}, {"type": "Feature", "properties": {"country_iso": "DOM", "country_name": "Dominican Republic (the)"}, "geometry": {"type": "Polygon", "coordinates": [[[-71.273, 17.85], [-71.422, 17.597], [-71.699, 17.771], [-71.788, 18.181], [-71.696, 18.341], [-72.011, 18.621], [-71.739, 18.724], [-71.729, 18.874], [-71.887, 18.959], [-71.627, 19.182], [-71.783, 19.33], [-71.678, 19.445], [-71.779, 19.778], [-71.655, 19.899], [-71.271, 19.825], [-70.999, 19.932], [-70.267, 19.641], [-69.947, 19.675], [-69.743, 19.283], [-69.149, 19.299], [-69.229, 19.18], [-69.623, 19.224], [-69.627, 19.082], [-68.92, 19.028], [-68.325, 18.617], [-68.643, 18.21], [-68.898, 18.406], [-69.882, 18.48], [-70.159, 18.228], [-70.506, 18.193], [-70.687, 18.429], [-70.932, 18.254], [-71.087, 18.294], [-71.073, 18.108], [-71.273, 17.85]], [[-71.634, 18.53], [-71.831, 18.528], [-71.515, 18.451], [-71.634, 18.53]]]}}, {"type": "Feature", "properties": {"country_iso": "ECU", "country_name": "Ecuador"}, "geometry": {"type": "MultiPolygon", "coordinates": [[[[-80.396, -0.626], [-80.488, -0.365], [-80.067, 0.053], [-80.038, 0.372], [-80.034, 0.118], [-79.903, 0.277], [-80.062, 0.457], [-80.051, 0.826], [-79.051, 1.225], [-78.977, 1.112], [-78.778, 1.285], [-78.804, 1.428], [-78.431, 1.14], [-78.311, 1.191], [-78.185, 0.938], [-77.665, 0.818], [-77.664, 0.707], [-77.48, 0.656], [-77.529, 0.406], [-76.586, 0.219], [-76.412, 0.242], [-76.277, 0.437], [-75.809, 0.052], [-75.259, -0.113], [-75.61, -0.114], [-75.228, -0.55], [-75.187, -0.973], [-75.388, -0.925], [-75.558, -1.561], [-76.634, -2.59], [-77.845, -2.999], [-78.193, -3.362], [-78.184, -3.5], [-78.347, -3.381], [-78.653, -4.585], [-78.855, -4.667], [-79.015, -5.016], [-79.269, -4.964], [-79.629, -4.439], [-79.813, -4.491], [-80.135, -4.286], [-80.45, -4.448], [-80.306, -4.2], [-80.449, -4.209], [-80.482, -4.054], [-80.127, -3.895], [-80.241, -3.461], [-79.969, -3.4], [-80.03, -3.315], [-79.644, -2.498], [-79.692, -2.421], [-79.752, -2.518], [-79.745, -2.315], [-79.759, -2.52], [-79.833, -2.396], [-79.843, -2.135], [-79.865, -2.159], [-79.895, -2.07], [-79.875, -2.286], [-79.902, -2.151], [-80.032, -2.197], [-79.966, -2.334], [-80.096, -2.507], [-80.17, -2.399], [-80.101, -2.52], [-80.195, -2.494], [-80.249, -2.646], [-80.291, -2.574], [-80.314, -2.711], [-81.011, -2.189], [-80.734, -2.049], [-80.855, -1.6], [-80.734, -1.353], [-80.913, -1.058], [-80.579, -0.923], [-80.453, -0.611], [-80.396, -0.626]]], [[[-79.828, -2.593], [-79.885, -2.655], [-79.847, -2.467], [-79.828, -2.593]]], [[[-79.85, -2.34], [-79.917, -2.588], [-79.865, -2.261], [-79.85, -2.34]]], [[[-79.986, -2.519], [-79.93, -2.6], [-80.066, -2.594], [-79.986, -2.519]]], [[[-79.961, -2.713], [-80.026, -2.859], [-80.167, -2.858], [-80.123, -3.024], [-80.254, -3.034], [-80.22, -2.738], [-79.961, -2.713]]], [[[-89.348, -0.687], [-89.241, -0.72], [-89.4, -0.915], [-89.628, -0.918], [-89.348, -0.687]]], [[[-90.249, -0.489], [-90.238, -0.744], [-90.536, -0.696], [-90.514, -0.531], [-90.249, -0.489]]], [[[-90.789, -0.147], [-90.582, -0.238], [-90.579, -0.364], [-90.833, -0.33], [-90.789, -0.147]]], [[[-91.342, 0.163], [-90.781, -0.758], [-90.849, -0.914], [-91.171, -1.055], [-91.512, -0.906], [-91.073, -0.616], [-91.388, -0.26], [-91.419, -0.031], [-91.594, -0.011], [-91.342, 0.163]]], [[[-91.457, -0.262], [-91.387, -0.456], [-91.61, -0.481], [-91.659, -0.307], [-91.457, -0.262]]]]}}, {"type": "Feature", "properties": {"country_iso": "GTM", "country_name": "Guatemala"}, "geometry": {"type": "Polygon", "coordinates": [[[-91.84, 14.238], [-92.24, 14.543], [-92.059, 15.069], [-92.211, 15.26], [-91.731, 16.074], [-90.445, 16.074], [-90.371, 16.366], [-90.635, 16.479], [-90.712, 16.726], [-91.444, 17.251], [-90.987, 17.251], [-90.988, 17.817], [-89.157, 17.817], [-89.224, 15.889], [-88.747, 15.825], [-89.412, 15.454], [-89.306, 15.354], [-89.092, 15.419], [-88.992, 15.666], [-88.751, 15.814], [-88.601, 15.7], [-88.491, 15.85], [-88.619, 15.966], [-88.221, 15.724], [-89.153, 15.07], [-89.152, 14.583], [-89.574, 14.417], [-89.522, 14.223], [-90.025, 13.937], [-90.103, 13.74], [-90.595, 13.916], [-91.306, 13.95], [-91.84, 14.238]]]}}, {"type": "Feature", "properties": {"country_iso": "GUY", "country_name": "Guyana"}, "geometry": {"type": "MultiPolygon", "coordinates": [[[[-58.505, 1.404], [-58.496, 1.268], [-58.695, 1.298], [-58.821, 1.171], [-59.69, 1.757], [-59.722, 2.277], [-59.897, 2.363], [-59.991, 2.688], [-59.804, 3.362], [-59.872, 3.564], [-59.516, 3.944], [-59.725, 4.183], [-59.674, 4.376], [-60.163, 4.507], [-59.99, 4.973], [-60.136, 5.249], [-60.732, 5.208], [-61.394, 5.955], [-61.173, 6.153], [-61.17, 6.685], [-60.92, 6.859], [-60.506, 6.889], [-60.283, 7.096], [-60.353, 7.221], [-60.628, 7.226], [-60.724, 7.562], [-60.551, 7.839], [-60.339, 7.822], [-59.829, 8.242], [-59.998, 8.558], [-59.818, 8.331], [-59.73, 8.393], [-59.126, 8.034], [-58.485, 7.366], [-58.613, 6.419], [-58.412, 6.872], [-58.04, 6.819], [-57.146, 6.0], [-57.349, 5.313], [-57.192, 5.17], [-57.301, 5.177], [-57.304, 5.035], [-57.874, 4.905], [-57.846, 4.631], [-58.086, 4.131], [-57.673, 3.382], [-57.305, 3.374], [-57.204, 2.834], [-56.707, 2.034], [-56.481, 1.945], [-56.791, 1.853], [-57.087, 2.027], [-57.307, 1.997], [-57.553, 1.693], [-57.99, 1.659], [-58.004, 1.504], [-58.322, 1.597], [-58.505, 1.404]]], [[[-58.514, 6.82], [-58.559, 6.728], [-58.48, 6.904], [-58.514, 6.82]]]]}}, {"type": "Feature", "properties": {"country_iso": "HND", "country_name": "Honduras"}, "geometry": {"type": "MultiPolygon", "coordinates": [[[[-88.618, 14.015], [-89.098, 14.403], [-89.356, 14.421], [-89.151, 14.585], [-89.175, 15.037], [-88.251, 15.721], [-87.726, 15.922], [-87.601, 15.928], [-87.63, 15.767], [-87.374, 15.848], [-86.91, 15.755], [-86.36, 15.781], [-85.939, 15.928], [-86.005, 16.029], [-85.466, 15.86], [-85.011, 15.985], [-84.647, 15.775], [-84.428, 15.815], [-84.646, 15.867], [-84.304, 15.817], [-84.164, 15.567], [-84.156, 15.697], [-83.728, 15.392], [-84.229, 15.542], [-84.1, 15.342], [-83.844, 15.246], [-84.051, 15.379], [-83.966, 15.393], [-83.744, 15.168], [-83.633, 15.303], [-83.563, 15.27], [-83.717, 15.395], [-83.15, 14.998], [-83.503, 15.01], [-83.62, 14.861], [-84.47, 14.616], [-84.902, 14.811], [-85.152, 14.572], [-85.185, 14.25], [-85.753, 13.968], [-85.751, 13.833], [-86.043, 13.996], [-86.012, 14.08], [-86.335, 13.768], [-86.761, 13.769], [-86.706, 13.302], [-86.909, 13.269], [-87.028, 12.986], [-87.431, 13.102], [-87.516, 13.272], [-87.378, 13.408], [-87.821, 13.412], [-87.717, 13.468], [-87.804, 13.921], [-88.007, 13.871], [-88.23, 14.0], [-88.468, 13.849], [-88.618, 14.015]], [[-83.535, 15.247], [-83.638, 15.164], [-83.494, 15.214], [-83.535, 15.247]]], [[[-86.434, 16.363], [-86.224, 16.424], [-86.603, 16.269], [-86.434, 16.363]]]]}}, {"type": "Feature", "properties": {"country_iso": "HTI", "country_name": "Haiti"}, "geometry": {"type": "MultiPolygon", "coordinates": [[[[-73.834, 18.097], [-73.891, 18.026], [-74.092, 18.248], [-74.445, 18.347], [-74.425, 18.616], [-74.195, 18.676], [-72.892, 18.424], [-72.339, 18.575], [-72.323, 18.68], [-72.822, 19.046], [-72.703, 19.107], [-72.8, 19.221], [-72.697, 19.459], [-73.391, 19.634], [-73.408, 19.843], [-72.781, 19.952], [-72.319, 19.707], [-72.247, 19.789], [-71.759, 19.702], [-71.678, 19.444], [-71.786, 19.331], [-71.628, 19.182], [-71.885, 18.96], [-71.723, 18.881], [-71.738, 18.722], [-72.008, 18.625], [-71.695, 18.341], [-71.759, 18.032], [-72.052, 18.237], [-72.822, 18.142], [-73.39, 18.28], [-73.834, 18.097]]], [[[-73.052, 18.921], [-72.808, 18.703], [-73.304, 18.926], [-73.052, 18.921]]], [[[-72.731, 20.06], [-72.62, 19.997], [-72.968, 20.065], [-72.731, 20.06]]]]}}, {"type": "Feature", "properties": {"country_iso": "MEX", "country_name": "M\u00e9xico"}, "geometry": {"type": "MultiPolygon", "coordinates": [[[[-86.732, 20.567], [-86.994, 20.275], [-86.927, 20.551], [-86.732, 20.567]]], [[[-112.789, 26.412], [-113.062, 26.599], [-113.124, 26.81], [-113.245, 26.787], [-113.165, 26.993], [-113.268, 26.751], [-113.455, 26.831], [-113.61, 26.715], [-113.853, 26.97], [-114.434, 27.176], [-114.513, 27.417], [-115.025, 27.74], [-115.055, 27.861], [-114.499, 27.772], [-114.312, 27.874], [-114.111, 27.6], [-113.957, 27.664], [-114.069, 27.807], [-114.145, 27.726], [-114.148, 27.955], [-114.275, 27.907], [-114.134, 28.085], [-114.111, 27.921], [-114.039, 28.025], [-114.125, 28.257], [-114.046, 28.466], [-114.967, 29.375], [-115.698, 29.754], [-115.812, 30.301], [-116.047, 30.471], [-116.057, 30.796], [-116.336, 30.969], [-116.37, 31.267], [-116.69, 31.555], [-116.743, 31.744], [-116.629, 31.696], [-116.613, 31.846], [-116.88, 32.019], [-117.123, 32.534], [-114.72, 32.719], [-114.814, 32.494], [-111.075, 31.332], [-108.208, 31.333], [-108.208, 31.784], [-106.451, 31.764], [-105.401, 30.853], [-104.922, 30.603], [-104.451, 29.582], [-103.285, 28.976], [-102.868, 29.223], [-102.674, 29.745], [-102.388, 29.761], [-102.316, 29.88], [-101.401, 29.771], [-101.259, 29.522], [-100.675, 29.101], [-100.291, 28.275], [-99.513, 27.569], [-99.446, 27.022], [-99.085, 26.398], [-98.195, 26.053], [-97.663, 26.038], [-97.425, 25.841], [-97.146, 25.954], [-97.424, 25.238], [-97.377, 25.368], [-97.525, 25.541], [-97.532, 25.289], [-97.694, 25.381], [-97.797, 25.256], [-97.62, 24.929], [-97.749, 24.861], [-97.742, 24.486], [-97.858, 24.623], [-97.876, 24.506], [-97.824, 24.325], [-97.744, 24.444], [-97.746, 23.804], [-97.711, 24.276], [-97.732, 23.772], [-98.0, 23.768], [-97.751, 23.766], [-97.772, 23.514], [-97.734, 23.767], [-97.829, 22.783], [-97.853, 22.717], [-97.929, 22.829], [-97.784, 22.264], [-98.0, 22.202], [-97.79, 22.26], [-97.647, 21.628], [-97.725, 21.593], [-97.501, 21.468], [-97.421, 21.265], [-97.383, 21.53], [-97.611, 21.842], [-97.328, 21.567], [-97.42, 21.264], [-97.306, 20.972], [-97.383, 21.042], [-97.36, 20.96], [-97.306, 20.967], [-97.194, 20.738], [-97.287, 20.719], [-97.002, 20.475], [-97.201, 20.453], [-96.992, 20.469], [-96.716, 20.171], [-96.448, 19.844], [-96.326, 19.322], [-95.752, 18.792], [-95.943, 18.869], [-95.819, 18.741], [-95.843, 18.713], [-95.772, 18.506], [-95.783, 18.749], [-95.638, 18.706], [-95.658, 18.617], [-95.582, 18.687], [-95.743, 18.791], [-95.185, 18.708], [-95.026, 18.506], [-94.816, 18.538], [-94.646, 18.168], [-94.416, 18.158], [-94.525, 18.112], [-94.432, 18.079], [-94.408, 18.16], [-94.131, 18.213], [-93.99, 17.916], [-94.126, 18.216], [-93.701, 18.234], [-93.754, 18.315], [-93.55, 18.365], [-93.449, 18.171], [-93.511, 18.382], [-93.198, 18.453], [-93.12, 18.331], [-93.093, 18.442], [-92.888, 18.295], [-92.883, 18.303], [-92.981, 18.401], [-92.837, 18.36], [-93.088, 18.442], [-92.672, 18.52], [-92.691, 18.615], [-92.468, 18.643], [-92.447, 18.613], [-92.467, 18.651], [-91.955, 18.697], [-91.882, 18.563], [-92.195, 18.609], [-92.299, 18.496], [-91.859, 18.528], [-91.832, 18.269], [-91.832, 18.421], [-91.69, 18.337], [-91.778, 18.485], [-91.506, 18.467], [-91.505, 18.486], [-91.253, 18.615], [-91.288, 18.625], [-91.221, 18.751], [-91.359, 18.874], [-91.498, 18.79], [-90.705, 19.363], [-90.707, 19.676], [-90.447, 19.959], [-90.502, 20.498], [-90.353, 20.908], [-90.095, 21.156], [-88.129, 21.624], [-87.222, 21.416], [-87.085, 21.589], [-86.823, 21.244], [-86.796, 21.406], [-86.741, 21.135], [-87.478, 20.007], [-87.523, 20.101], [-87.491, 19.907], [-87.667, 19.616], [-87.74, 19.672], [-87.682, 19.492], [-87.411, 19.592], [-87.683, 19.315], [-87.638, 19.177], [-87.446, 19.312], [-87.844, 18.193], [-87.934, 18.438], [-88.075, 18.479], [-88.051, 18.871], [-88.286, 18.494], [-88.519, 18.462], [-88.86, 17.894], [-89.038, 18.005], [-89.152, 17.816], [-90.988, 17.815], [-90.987, 17.251], [-91.435, 17.233], [-90.715, 16.728], [-90.634, 16.48], [-90.39, 16.413], [-90.426, 16.099], [-91.731, 16.074], [-92.211, 15.261], [-92.07, 15.056], [-92.23, 14.535], [-92.857, 15.159], [-92.739, 15.043], [-92.851, 15.165], [-92.769, 15.178], [-94.122, 16.222], [-94.444, 16.236], [-93.949, 15.992], [-94.726, 16.209], [-94.57, 16.221], [-94.581, 16.337], [-94.802, 16.27], [-94.878, 16.45], [-95.066, 16.281], [-94.817, 16.272], [-95.105, 16.236], [-94.745, 16.209], [-95.167, 16.197], [-95.436, 15.976], [-96.502, 15.658], [-97.211, 15.923], [-97.773, 15.978], [-98.728, 16.5], [-98.312, 16.702], [-98.729, 16.503], [-99.603, 16.684], [-99.612, 17.001], [-99.675, 16.702], [-101.061, 17.266], [-101.937, 17.956], [-102.136, 17.943], [-102.182, 18.045], [-102.192, 17.916], [-103.492, 18.329], [-103.969, 18.862], [-103.936, 18.957], [-103.97, 18.863], [-104.937, 19.309], [-105.693, 20.388], [-105.245, 20.582], [-105.344, 20.758], [-105.538, 20.762], [-105.239, 21.056], [-105.188, 21.447], [-105.421, 21.649], [-105.447, 21.634], [-105.472, 21.856], [-105.49, 21.732], [-105.652, 22.023], [-105.616, 22.186], [-105.45, 22.027], [-105.614, 22.215], [-105.662, 22.71], [-105.685, 22.556], [-105.617, 22.189], [-105.636, 22.277], [-105.685, 22.555], [-105.697, 22.472], [-106.429, 23.176], [-107.143, 24.142], [-107.488, 24.328], [-107.539, 24.521], [-107.644, 24.465], [-107.999, 24.653], [-108.069, 24.784], [-107.927, 24.741], [-108.052, 25.074], [-108.753, 25.369], [-108.62, 25.34], [-108.792, 25.418], [-108.776, 25.549], [-109.044, 25.464], [-109.118, 25.547], [-108.984, 25.54], [-108.936, 25.678], [-109.104, 25.57], [-109.308, 25.756], [-109.397, 25.681], [-109.409, 26.055], [-109.249, 26.316], [-109.289, 26.138], [-109.209, 26.343], [-109.116, 26.178], [-109.092, 26.285], [-109.252, 26.475], [-109.26, 26.32], [-109.476, 26.758], [-109.601, 26.721], [-109.495, 26.67], [-109.767, 26.708], [-109.925, 27.07], [-110.522, 27.291], [-110.626, 27.619], [-110.512, 27.859], [-110.848, 27.985], [-110.884, 27.839], [-110.972, 27.972], [-111.105, 27.937], [-111.428, 28.372], [-111.711, 28.459], [-111.95, 28.758], [-111.847, 28.797], [-112.172, 28.968], [-112.232, 29.306], [-112.41, 29.346], [-112.381, 29.487], [-112.747, 29.915], [-112.76, 30.199], [-113.084, 30.678], [-113.11, 31.2], [-113.625, 31.328], [-113.655, 31.496], [-113.975, 31.655], [-114.026, 31.492], [-114.199, 31.51], [-115.059, 31.999], [-114.808, 31.814], [-114.89, 31.145], [-114.711, 30.909], [-114.565, 30.01], [-113.638, 29.284], [-113.526, 28.893], [-113.438, 28.96], [-113.354, 28.799], [-113.221, 28.825], [-113.104, 28.506], [-112.846, 28.44], [-112.771, 27.861], [-112.359, 27.551], [-112.213, 27.204], [-111.953, 27.096], [-112.015, 26.974], [-111.782, 26.568], [-111.677, 26.589], [-111.851, 26.879], [-111.562, 26.697], [-111.307, 25.774], [-111.017, 25.515], [-110.685, 24.884], [-110.681, 24.357], [-110.366, 24.196], [-110.284, 24.353], [-109.984, 24.044], [-109.827, 24.061], [-109.697, 23.663], [-109.425, 23.45], [-109.52, 23.125], [-109.991, 22.885], [-110.327, 23.558], [-111.658, 24.57], [-111.817, 24.598], [-111.815, 24.507], [-111.98, 24.811], [-112.12, 24.783], [-112.103, 25.008], [-112.176, 24.817], [-112.001, 25.5], [-112.09, 25.474], [-112.094, 25.811], [-112.397, 26.236], [-112.789, 26.412]], [[-91.25, 18.614], [-91.3, 18.46], [-91.163, 18.59], [-91.25, 18.614]], [[-92.28, 18.283], [-92.647, 18.399], [-92.664, 18.484], [-92.702, 18.207], [-92.676, 18.233], [-92.603, 18.135], [-92.638, 18.153], [-92.602, 18.134], [-92.588, 18.115], [-92.67, 18.041], [-92.398, 18.031], [-92.51, 18.088], [-92.381, 18.192], [-92.631, 18.194], [-92.547, 18.243], [-92.668, 18.231], [-92.647, 18.396], [-92.267, 18.257], [-92.28, 18.283]], [[-92.182, 18.11], [-92.16, 17.984], [-92.006, 17.924], [-92.159, 17.99], [-92.122, 18.097], [-92.182, 18.11]], [[-92.109, 18.094], [-91.97, 18.001], [-92.091, 18.132], [-92.08, 18.087], [-92.109, 18.094]], [[-92.107, 18.198], [-91.993, 18.269], [-92.118, 18.243], [-92.107, 18.198]], [[-92.92, 17.983], [-92.923, 17.981], [-92.877, 17.823], [-92.921, 17.982], [-92.92, 17.983]], [[-92.991, 18.1], [-93.029, 18.028], [-93.355, 17.943], [-93.497, 17.504], [-93.387, 17.365], [-93.392, 17.363], [-93.383, 17.362], [-93.496, 17.506], [-93.348, 17.942], [-93.029, 18.027], [-92.991, 18.1]], [[-93.572, 17.274], [-93.856, 17.133], [-93.764, 16.984], [-93.717, 17.17], [-93.281, 17.001], [-93.612, 17.161], [-93.572, 17.274]], [[-94.45, 18.021], [-94.479, 17.972], [-94.521, 17.95], [-94.484, 17.907], [-94.45, 18.021]], [[-94.476, 17.898], [-94.402, 17.812], [-94.203, 17.855], [-94.123, 17.589], [-94.226, 17.555], [-94.122, 17.587], [-94.201, 17.856], [-94.476, 17.898]], [[-94.562, 17.929], [-94.774, 17.818], [-94.63, 17.852], [-94.724, 17.507], [-94.93, 17.395], [-94.723, 17.504], [-94.562, 17.929]], [[-95.714, 18.372], [-95.716, 18.363], [-95.977, 18.194], [-96.124, 18.143], [-96.12, 18.141], [-96.26, 18.004], [-95.714, 18.362], [-95.714, 18.372]], [[-95.854, 18.699], [-96.052, 18.468], [-95.849, 18.565], [-95.854, 18.699]]], [[[-90.359, 20.902], [-90.415, 20.776], [-90.404, 20.859], [-90.359, 20.902]]], [[[-109.316, 25.654], [-109.161, 25.56], [-109.397, 25.639], [-109.316, 25.654]]], [[[-110.979, 18.847], [-110.952, 18.716], [-111.056, 18.777], [-110.979, 18.847]]], [[[-111.064, 26.066], [-111.204, 25.806], [-111.175, 26.042], [-111.064, 26.066]]], [[[-111.561, 24.372], [-111.45, 24.33], [-111.671, 24.358], [-111.561, 24.372]]], [[[-111.977, 24.521], [-111.749, 24.442], [-111.711, 24.303], [-111.977, 24.521]]], [[[-112.123, 25.253], [-112.231, 24.834], [-112.056, 24.539], [-112.304, 24.795], [-112.123, 25.253]]], [[[-112.329, 29.22], [-112.189, 28.977], [-112.31, 28.747], [-112.584, 28.876], [-112.478, 29.167], [-112.329, 29.22]]], [[[-113.503, 29.535], [-113.367, 29.307], [-113.168, 29.278], [-113.116, 28.987], [-113.588, 29.409], [-113.503, 29.535]]], [[[-115.216, 28.375], [-115.229, 28.03], [-115.355, 28.081], [-115.216, 28.375]]]]}}, {"type": "Feature", "properties": {"country_iso": "NIC", "country_name": "Nicaragua"}, "geometry": {"type": "MultiPolygon", "coordinates": [[[[-86.761, 12.228], [-87.692, 12.912], [-87.578, 13.088], [-87.376, 12.861], [-86.999, 12.83], [-87.308, 12.988], [-87.028, 12.987], [-86.908, 13.269], [-86.706, 13.303], [-86.762, 13.768], [-86.335, 13.769], [-86.012, 14.08], [-86.042, 13.996], [-85.753, 13.831], [-85.752, 13.969], [-85.185, 14.25], [-85.153, 14.571], [-84.9, 14.816], [-84.469, 14.616], [-83.7, 14.826], [-83.5, 15.011], [-83.171, 14.989], [-83.304, 14.786], [-83.428, 14.938], [-83.5, 14.818], [-83.362, 14.656], [-83.309, 14.775], [-83.199, 14.322], [-83.282, 14.159], [-83.268, 14.361], [-83.412, 14.384], [-83.284, 14.151], [-83.463, 13.884], [-83.534, 13.981], [-83.526, 13.559], [-83.531, 13.727], [-83.726, 13.58], [-83.524, 13.545], [-83.613, 13.404], [-83.513, 12.914], [-83.607, 12.914], [-83.503, 12.901], [-83.489, 12.398], [-83.642, 12.375], [-83.544, 12.757], [-83.624, 12.819], [-83.596, 12.623], [-83.784, 12.535], [-83.688, 12.299], [-83.63, 12.365], [-83.68, 12.184], [-83.69, 11.988], [-83.76, 12.217], [-83.735, 12.246], [-84.01, 12.09], [-83.786, 12.148], [-83.844, 11.885], [-83.678, 11.766], [-83.645, 11.595], [-83.903, 11.293], [-83.67, 10.797], [-83.932, 10.708], [-84.203, 10.782], [-84.359, 10.996], [-84.68, 11.084], [-84.91, 10.944], [-85.609, 11.219], [-85.742, 11.087], [-86.517, 11.776], [-86.761, 12.228]], [[-84.962, 11.483], [-85.582, 12.047], [-85.914, 12.054], [-85.921, 11.719], [-85.625, 11.249], [-84.83, 11.041], [-84.771, 11.236], [-84.962, 11.483]], [[-86.121, 12.334], [-86.207, 12.273], [-86.296, 12.499], [-86.612, 12.397], [-86.432, 12.241], [-86.309, 12.286], [-86.324, 12.16], [-86.119, 12.178], [-86.121, 12.334]]], [[[-85.634, 11.594], [-85.462, 11.417], [-85.72, 11.511], [-85.634, 11.594]]]]}}, {"type": "Feature", "properties": {"country_iso": "PAN", "country_name": "Panam\u00e1"}, "geometry": {"type": "MultiPolygon", "coordinates": [[[[-81.983, 8.202], [-82.14, 8.263], [-82.163, 8.166], [-82.21, 8.378], [-82.482, 8.271], [-82.708, 8.344], [-82.857, 8.276], [-82.896, 8.038], [-83.05, 8.336], [-82.848, 8.465], [-82.917, 8.765], [-82.712, 8.94], [-82.935, 9.083], [-82.856, 9.615], [-82.343, 9.432], [-82.397, 9.265], [-82.172, 9.195], [-82.243, 8.998], [-81.791, 8.941], [-81.882, 9.184], [-81.547, 8.811], [-81.298, 8.782], [-79.8, 9.359], [-79.622, 9.617], [-78.972, 9.567], [-79.061, 9.441], [-78.562, 9.443], [-78.044, 9.245], [-77.545, 8.71], [-77.358, 8.676], [-77.462, 8.524], [-77.173, 7.937], [-77.327, 7.903], [-77.317, 7.749], [-77.571, 7.513], [-77.744, 7.724], [-77.72, 7.496], [-77.893, 7.222], [-78.302, 7.689], [-78.449, 8.061], [-78.257, 8.117], [-78.308, 8.257], [-78.179, 8.394], [-78.249, 8.378], [-78.244, 8.436], [-78.369, 8.422], [-78.403, 8.568], [-78.419, 8.346], [-78.525, 8.644], [-79.174, 9.027], [-79.585, 8.991], [-79.858, 8.652], [-79.698, 8.657], [-79.758, 8.595], [-80.475, 8.223], [-80.512, 8.101], [-79.991, 7.515], [-80.363, 7.393], [-80.437, 7.242], [-80.935, 7.249], [-81.04, 7.948], [-81.246, 7.761], [-81.229, 7.608], [-81.582, 7.764], [-81.753, 8.198], [-81.983, 8.202]], [[-78.136, 8.403], [-78.052, 8.341], [-78.151, 8.599], [-78.1, 8.411], [-78.136, 8.403]], [[-79.651, 9.193], [-79.53, 9.229], [-79.556, 9.361], [-79.651, 9.193]], [[-79.955, 9.01], [-79.92, 9.178], [-79.85, 9.037], [-79.682, 9.117], [-79.859, 9.186], [-79.825, 9.343], [-80.087, 9.025], [-79.955, 9.01]]], [[[-81.795, 7.387], [-81.892, 7.522], [-81.751, 7.649], [-81.59, 7.328], [-81.795, 7.387]]]]}}, {"type": "Feature", "properties": {"country_iso": "PER", "country_name": "Peru"}, "geometry": {"type": "MultiPolygon", "coordinates": [[[[-75.073, -15.443], [-76.275, -14.197], [-76.282, -13.911], [-76.398, -13.892], [-76.251, -13.854], [-76.208, -13.381], [-76.799, -12.362], [-77.171, -12.073], [-77.208, -11.648], [-77.648, -11.303], [-77.658, -10.947], [-78.185, -10.109], [-78.758, -8.6], [-79.465, -7.717], [-79.686, -7.12], [-80.064, -6.684], [-81.111, -6.062], [-81.124, -5.843], [-80.911, -5.829], [-80.852, -5.637], [-81.193, -5.217], [-81.064, -5.012], [-81.328, -4.682], [-81.239, -4.252], [-80.318, -3.382], [-80.127, -3.895], [-80.48, -4.054], [-80.449, -4.209], [-80.31, -4.206], [-80.449, -4.448], [-80.136, -4.285], [-79.813, -4.491], [-79.628, -4.439], [-79.266, -4.967], [-79.014, -5.015], [-78.856, -4.668], [-78.656, -4.585], [-78.346, -3.382], [-78.168, -3.491], [-78.196, -3.361], [-77.845, -2.998], [-76.632, -2.59], [-75.558, -1.561], [-75.387, -0.93], [-75.188, -0.97], [-75.227, -0.551], [-75.61, -0.113], [-75.312, -0.16], [-75.184, -0.039], [-74.423, -0.499], [-74.267, -0.982], [-73.621, -1.26], [-73.457, -1.574], [-73.53, -1.707], [-73.147, -1.803], [-73.07, -2.088], [-73.168, -2.229], [-72.934, -2.455], [-72.62, -2.356], [-72.15, -2.47], [-71.732, -2.14], [-71.395, -2.407], [-70.879, -2.221], [-70.627, -2.476], [-70.304, -2.501], [-70.352, -2.569], [-70.07, -2.671], [-70.713, -3.794], [-70.292, -3.821], [-69.956, -4.208], [-69.98, -4.34], [-70.109, -4.256], [-70.196, -4.36], [-70.32, -4.143], [-70.572, -4.211], [-70.645, -4.127], [-70.938, -4.383], [-71.905, -4.515], [-72.818, -5.103], [-72.959, -5.657], [-73.236, -6.036], [-73.135, -6.51], [-73.71, -6.84], [-73.8, -7.117], [-73.696, -7.311], [-73.951, -7.357], [-73.98, -7.559], [-73.688, -7.767], [-73.772, -7.909], [-73.542, -8.35], [-72.941, -8.985], [-73.204, -9.407], [-72.357, -9.495], [-72.151, -9.797], [-72.18, -10.0], [-71.221, -9.97], [-70.496, -9.425], [-70.623, -9.821], [-70.614, -11.0], [-70.522, -10.934], [-70.308, -11.071], [-69.933, -10.922], [-69.576, -10.942], [-68.652, -12.503], [-68.871, -12.871], [-68.896, -13.461], [-69.067, -13.673], [-68.917, -13.814], [-68.979, -13.977], [-68.828, -14.219], [-68.985, -14.237], [-69.354, -14.802], [-69.12, -15.259], [-69.331, -15.538], [-69.687, -15.238], [-69.895, -15.295], [-69.791, -15.352], [-69.938, -15.415], [-69.744, -15.723], [-69.943, -15.556], [-70.034, -15.723], [-69.86, -15.932], [-69.806, -15.783], [-69.664, -15.97], [-69.452, -15.994], [-69.494, -16.208], [-69.257, -16.3], [-68.957, -16.197], [-69.077, -16.259], [-69.098, -16.491], [-68.996, -16.657], [-69.644, -17.281], [-69.467, -17.374], [-69.468, -17.504], [-69.796, -17.646], [-69.752, -17.986], [-69.961, -18.263], [-70.377, -18.351], [-71.381, -17.707], [-71.385, -17.409], [-71.509, -17.269], [-72.112, -17.016], [-72.448, -16.702], [-73.7, -16.242], [-75.073, -15.443]]], [[[-68.814, -16.32], [-68.918, -16.404], [-68.918, -16.233], [-68.814, -16.32]]]]}}, {"type": "Feature", "properties": {"country_iso": "PRY", "country_name": "Paraguay"}, "geometry": {"type": "Polygon", "coordinates": [[[-57.345, -27.417], [-58.026, -27.258], [-58.61, -27.306], [-58.664, -27.176], [-58.191, -26.645], [-58.158, -26.18], [-57.855, -26.005], [-57.826, -25.757], [-57.577, -25.565], [-57.754, -25.176], [-59.128, -24.618], [-60.029, -24.018], [-60.369, -24.034], [-60.992, -23.809], [-61.122, -23.586], [-61.987, -23.016], [-62.287, -22.478], [-62.64, -22.3], [-62.261, -21.059], [-62.266, -20.563], [-61.735, -19.634], [-59.978, -19.295], [-59.069, -19.288], [-58.236, -19.775], [-58.161, -20.26], [-57.819, -20.942], [-57.993, -22.087], [-56.841, -22.301], [-56.394, -22.074], [-56.21, -22.278], [-55.853, -22.28], [-55.614, -22.655], [-55.639, -23.026], [-55.414, -23.965], [-54.941, -23.969], [-54.67, -23.813], [-54.291, -24.026], [-54.417, -25.161], [-54.658, -25.677], [-54.618, -26.215], [-54.813, -26.669], [-55.555, -27.106], [-55.736, -27.445], [-56.098, -27.308], [-56.408, -27.592], [-56.589, -27.438], [-57.345, -27.417]]]}}, {"type": "Feature", "properties": {"country_iso": "SLV", "country_name": "El Salvador"}, "geometry": {"type": "Polygon", "coordinates": [[[-89.485, 13.497], [-89.809, 13.518], [-90.125, 13.742], [-90.027, 13.937], [-89.521, 14.223], [-89.568, 14.42], [-89.043, 14.327], [-88.495, 13.859], [-88.103, 13.986], [-87.71, 13.811], [-87.724, 13.441], [-87.887, 13.398], [-87.779, 13.292], [-87.899, 13.153], [-88.424, 13.166], [-88.64, 13.302], [-88.712, 13.253], [-88.464, 13.172], [-88.733, 13.225], [-89.485, 13.497]]]}}, {"type": "Feature", "properties": {"country_iso": "SUR", "country_name": "Suriname"}, "geometry": {"type": "Polygon", "coordinates": [[[-55.984, 2.494], [-56.133, 2.258], [-55.912, 2.042], [-55.957, 1.844], [-56.707, 2.034], [-57.204, 2.834], [-57.305, 3.374], [-57.664, 3.374], [-58.051, 3.982], [-58.087, 4.141], [-57.846, 4.631], [-57.924, 4.843], [-57.192, 5.17], [-57.349, 5.313], [-57.147, 5.993], [-57.117, 5.877], [-56.961, 6.015], [-55.937, 5.805], [-55.893, 5.969], [-55.603, 5.992], [-54.035, 5.84], [-54.015, 5.544], [-54.474, 4.904], [-54.363, 4.046], [-53.977, 3.601], [-54.433, 2.34], [-54.696, 2.333], [-54.689, 2.452], [-54.864, 2.439], [-54.94, 2.632], [-55.336, 2.516], [-55.37, 2.407], [-55.984, 2.494]]]}}, {"type": "Feature", "properties": {"country_iso": "URY", "country_name": "Uraguay"}, "geometry": {"type": "Polygon", "coordinates": [[[-57.41, -34.43], [-57.854, -34.473], [-58.407, -33.927], [-58.443, -33.677], [-58.353, -33.135], [-58.135, -33.098], [-58.035, -32.925], [-58.134, -33.026], [-58.201, -32.452], [-58.1, -32.275], [-58.205, -31.871], [-58.022, -31.695], [-58.086, -31.47], [-57.799, -30.851], [-57.878, -30.516], [-57.635, -30.338], [-57.634, -30.177], [-57.227, -30.286], [-57.068, -30.088], [-56.803, -30.104], [-56.021, -30.782], [-56.008, -31.063], [-55.586, -30.848], [-55.244, -31.254], [-54.525, -31.498], [-54.455, -31.672], [-53.741, -32.079], [-53.594, -32.429], [-53.094, -32.724], [-53.517, -33.13], [-53.53, -33.662], [-53.374, -33.747], [-53.533, -34.045], [-53.777, -34.406], [-54.152, -34.67], [-54.275, -34.683], [-54.276, -34.559], [-54.365, -34.63], [-54.281, -34.684], [-54.95, -34.974], [-55.682, -34.762], [-56.161, -34.938], [-57.135, -34.449], [-57.41, -34.43]]]}}, {"type": "Feature", "properties": {"country_iso": "VEN", "country_name": "Venezuela (Bolivarian Republic of)"}, "geometry": {"type": "MultiPolygon", "coordinates": [[[[-72.416, 7.401], [-72.49, 7.932], [-72.349, 8.005], [-72.38, 8.31], [-72.655, 8.614], [-72.766, 9.106], [-72.948, 9.092], [-73.009, 9.291], [-73.369, 9.173], [-72.944, 9.843], [-72.901, 10.436], [-72.498, 11.086], [-72.249, 11.14], [-71.971, 11.646], [-71.332, 11.843], [-71.958, 11.581], [-71.879, 11.223], [-71.607, 10.987], [-71.782, 11.0], [-71.582, 10.701], [-71.63, 10.437], [-72.134, 9.815], [-71.932, 9.511], [-71.992, 9.596], [-71.999, 9.442], [-71.714, 9.384], [-71.781, 9.106], [-71.267, 9.129], [-71.054, 9.33], [-71.026, 9.711], [-71.479, 10.392], [-71.592, 10.793], [-71.432, 10.796], [-71.499, 10.951], [-70.047, 11.436], [-70.139, 11.566], [-69.745, 11.467], [-69.807, 11.693], [-70.236, 11.63], [-70.291, 11.903], [-70.024, 12.194], [-69.893, 12.135], [-69.628, 11.47], [-68.859, 11.45], [-68.394, 11.178], [-68.262, 10.907], [-68.364, 10.919], [-68.218, 10.858], [-68.326, 10.854], [-68.298, 10.686], [-68.137, 10.484], [-66.236, 10.649], [-65.875, 10.302], [-65.053, 10.061], [-64.761, 10.1], [-64.186, 10.479], [-63.642, 10.49], [-64.049, 10.6], [-64.231, 10.503], [-64.262, 10.665], [-61.862, 10.749], [-62.346, 10.532], [-62.852, 10.539], [-62.828, 10.397], [-62.769, 10.502], [-62.435, 9.997], [-62.162, 10.009], [-61.823, 9.789], [-61.6, 9.78], [-61.631, 9.889], [-61.348, 9.615], [-60.993, 9.554], [-60.681, 9.138], [-60.783, 8.986], [-60.593, 8.549], [-60.052, 8.579], [-59.741, 8.231], [-59.944, 8.214], [-60.361, 7.817], [-60.529, 7.826], [-60.71, 7.545], [-60.532, 7.129], [-60.443, 7.211], [-60.278, 7.127], [-60.36, 6.933], [-60.699, 6.754], [-60.902, 6.815], [-61.216, 6.579], [-61.104, 6.188], [-61.388, 5.938], [-60.584, 4.955], [-60.997, 4.511], [-61.314, 4.526], [-61.539, 4.262], [-61.835, 4.157], [-62.145, 4.077], [-62.444, 4.181], [-62.556, 4.02], [-62.743, 4.036], [-62.73, 3.693], [-62.887, 3.55], [-63.34, 3.956], [-63.485, 3.847], [-63.618, 3.963], [-64.01, 3.866], [-64.135, 4.109], [-64.593, 4.098], [-64.791, 4.307], [-64.749, 4.054], [-64.18, 3.548], [-64.227, 3.117], [-63.993, 2.755], [-64.045, 2.495], [-63.349, 2.392], [-63.361, 2.235], [-63.659, 2.01], [-63.994, 1.966], [-64.072, 1.613], [-64.33, 1.345], [-64.387, 1.508], [-64.738, 1.207], [-64.821, 1.283], [-65.138, 1.114], [-65.184, 0.916], [-65.324, 0.912], [-65.546, 0.635], [-65.556, 0.971], [-66.321, 0.734], [-66.842, 1.206], [-67.188, 2.35], [-67.614, 2.812], [-67.864, 2.789], [-67.311, 3.378], [-67.501, 3.767], [-67.634, 3.786], [-67.858, 4.531], [-67.85, 5.304], [-67.625, 5.476], [-67.597, 5.828], [-67.41, 5.995], [-67.467, 6.206], [-67.81, 6.324], [-68.028, 6.196], [-68.645, 6.129], [-69.046, 6.222], [-69.237, 6.08], [-69.428, 6.107], [-70.118, 6.979], [-70.322, 6.935], [-70.687, 7.104], [-71.022, 6.974], [-71.939, 7.006], [-72.196, 7.385], [-72.416, 7.401]], [[-67.866, 10.151], [-67.602, 10.179], [-67.731, 10.261], [-67.866, 10.151]]], [[[-64.061, 10.983], [-63.88, 11.18], [-63.776, 10.999], [-64.062, 10.861], [-64.41, 10.973], [-64.215, 11.086], [-64.061, 10.983]]]]}}]}